ID,Name,Trading Name,Translated Official Name - English,Translated Official Name - Source Language,Description,Jurisdiction,Type - (Value),ORG-Ids - Primary,Contact - Name - (Value),Contact - Job title - (Value),Contact - Profile - (Value),Contact - Email - (Value),Contact - Twitter - (Value),Contact - LinkedIn - (Value),Website,Address,Postcode,Country
INDIGO-ORG-0001,Sheffield Futures,,,,,,,GB-CHC-1044940,,,,,,,https://www.sheffieldfutures.org.uk/,"Star House, 43 Division Street, Sheffield",S1 4GE,GB
INDIGO-ORG-0002,Triodos Bank UK,,,,,,,GB-COH-11379025,,,,,,,https://www.triodos.co.uk/,"Deanery Road, Bristol",BS1 5AS,GB
INDIGO-ORG-0005,Ministry of Justice (MoJ),,,,,GB,Government body,,,,,,,,,,,
INDIGO-ORG-0006,Sheffield City Council,,,,,GB,Government body,,,,,,,,,,,
INDIGO-ORG-0007,The Key Fund,,,,,,,,,,,,,,,,,
INDIGO-ORG-0008,Big Issue Invest,,,,,,,,,,,,,,,,,
INDIGO-ORG-0009,QBE Insurance Group,,,,"QBE Insurance Group is one of the world's top 20 insurance and reinsurance companies, located in 37 countries.",AU,"Registered company, partnership or commercial association",,Caitlin Medley,,,caitlin.medley@qbe.com,,,http://www.qbe.com,,,AU
INDIGO-ORG-0010,Montpellier Foundation,,,,,,,,,,,,,,,,,
INDIGO-ORG-0011,UnitingCare Queensland,,,,,,,,,,,,,,,,,
INDIGO-ORG-0013,Social Ventures Australia,,,,"Social Ventures Australia (SVA) is a not-for-profit organisation that works with partners to alleviate disadvantage through consulting, impact investing, philanthropy and advocacy.",AU,"Registered non-profit organisation, charity or foundation",,Elyse Sainty,,,esainty@socialventures.com.au,,,https://www.socialventures.com.au/,,,Australia
INDIGO-ORG-0014,Queensland Treasury,,,,,AU,Government body,,,,,,,,,,,
INDIGO-ORG-0015,"Investors range from high net worth individuals and foundations, through to institutional investors such as NGS Super, QIC and HESTA.",,,,,,,,,,,,,,,,,
INDIGO-ORG-0016,La Cravate Solidaire,,,,,,,,,,,,,,,,,
INDIGO-ORG-0017,Kimso,,,,,,,,,,,,,,www.kimso.fr,,,
INDIGO-ORG-0018,BNP Paribas,,,,,,,,,,,,,,,,,
INDIGO-ORG-0019,"Ministry of Labor, Employment, Professional Formation, and Social Dialogue (Ministère du Travail, de l’Emploi, de la Formation Professionnelle et du Dialogue Social)",,,,,FR,Government body,,,,,,,,,,,
INDIGO-ORG-0020,Ministry of Solidarity and Ecological Transition (Ministère de la Transition Ecologique et Solidaire),,,,,FR,Government body,,,,,,,,,,,
INDIGO-ORG-0021,"Ministère de l'Économie, des Finances et de l'Industrie (French Ministry of Economy, Finance and Industry)",,,,,FR,Government body,,,,,,,,https://www.economie.gouv.fr/,,,
INDIGO-ORG-0022,MAIF,,,,,,,,,,,,,,,,,
INDIGO-ORG-0023,Caisse des Dépots,,,,,,,,,,,,,,,,,
INDIGO-ORG-0024,AVIVA,,,,,,,,,,,,,,,,,
INDIGO-ORG-0025,INCO,,,,,,,,,,,,,,,,,
INDIGO-ORG-0026,Conscience Community Network,,,,,,,,,,,,,,,,,
INDIGO-ORG-0027,One Hope United,,,,,,,,,,,,,,,,,
INDIGO-ORG-0028,Maryville Academic,,,,,,,,,,,,,,,,,
INDIGO-ORG-0029,OMNI Youth Services,,,,,,,,,,,,,,,,,
INDIGO-ORG-0030,SGA Youth and Family Services,,,,,,,,,,,,,,,,,
INDIGO-ORG-0031,UCAN,,,,,,,,,,,,,,,,,
INDIGO-ORG-0032,Youth Outreach Services,,,,,,,,,,,,,,,,,
INDIGO-ORG-0033,University of Michigan School of Social Work,,,,,,,,,,,,,,,,,
INDIGO-ORG-0034,Third Sector Capital Partners,,,,,,,,,,,,,,,,,
INDIGO-ORG-0037,Illinois Department of Children and Family Services (DCFS),,,,,US,Government body,,,,,,,,,,,
INDIGO-ORG-0038,Unknown,,,,,,,,,,,,,,,,,
INDIGO-ORG-0039,Duo for a Job,,,,,,,,,,,,,,,,,
INDIGO-ORG-0040,L'Observatoire bruxellois de l'emploi (Brussels Observatory of Employment),,,,,,,,,,,,,,,,,
INDIGO-ORG-0041,Stibbe,,,,,,,,,,,,,,,,,
INDIGO-ORG-0042,KOIS,,,,"KOIS is a firm specialized in impact investing. It deploys capital in impact businesses and funds that generate a competitive financial return, as well as a positive impact on society and the environment. Beyond deploying capital directly in impact businesses or on behalf of its clients, KOIS offers premium advisory services to assist various stakeholders in developing innovative impact finance mechanisms, such as Social Impact Bonds.",,"Registered company, partnership or commercial association",,Serena Guarnaschelli,,,serena@koisinvest.com,,,https://koisinvest.com,,,
INDIGO-ORG-0043,"Actiris, l'office regionale bruxellois de l'emploi (Brussel employment agency)",,,,,BE,Government body,,,,,,,,,,,
INDIGO-ORG-0044,Investor consortium led by KOIS (Degroof Petercam Foundation contributed as an investor),,,,,,,,,,,,,,,,,
INDIGO-ORG-0045,Career Connect,,,,,,,,,,,,,,,,,
INDIGO-ORG-0047,Department for Work and Pensions (DWP),,,,,GB,Government body,,,,,,,,,,,
INDIGO-ORG-0049,Big Society Capital,,,,,,,,,,,,,,,,,
INDIGO-ORG-0052,End of Life Care Integrator,,,,,,,,,,,,,,,,,
INDIGO-ORG-0053,Hammersmith and Fulham CCG,,,,,GB,Government body,,,,,,,,,,,
INDIGO-ORG-0054,Hounslow CCG,,,,,GB,Government body,,,,,,,,,,,
INDIGO-ORG-0056,Harrow CCG,,,,,GB,Government body,,,,,,,,,,,
INDIGO-ORG-0057,Hillingdon CCG,,,,,GB,Government body,,,,,,,,,,,
INDIGO-ORG-0059,Care and Wellbeing Fund,,,,,,,,,,,,,,,,,
INDIGO-ORG-0060,Western Cape Foundation for Community Work (FCW),,,,,,,,,,,,,,,,,
INDIGO-ORG-0061,Mothers2mothers,,,,,,,,,,,,,,,,,
INDIGO-ORG-0062,The Bertha Centre,,,,"The Bertha Centre for Social Innovation and Entrepreneurship is the first academic centre in Africa dedicated to advancing social innovation and entrepreneurship. It was established as a specialised centre at the UCT Graduate School of Business in late 2011, in partnership with the Bertha Foundation, a family foundation that works with inspiring leaders who are catalysts for social and economic change, and human rights. The Centre is now a leading academic centre in Africa",ZA,,,Jason Van Staden,,,jason.vanstaden@uct.ac.za,,,http://www.gsb.uct.ac.za/berthacentre,,,ZA
INDIGO-ORG-0063,Social Finance UK,,,,"Social Finance is a global non-profit social impact consultancy with a focus on the design, delivery and launch of outcomes-based contracts including social and development impact bonds and routes to scale approaches such as outcome funds and outcome contracting platforms. Social Finance pioneered the first social impact bond in the UK in 2009 and its adaptation to international development (DIBs) and works to actively support the development of quality outcomes-based commissioning.",GB,,,Jane Newman,,,jane.newman@socialfinance.org.uk,,,http://www.socialfinance.org.uk,,,GB
INDIGO-ORG-0064,Western Cape Department of Social Development,,,,,ZA,Government body,,,,,,,,,,,
INDIGO-ORG-0065,ApexHi Charitable Trust,,,,,ZA,"Registered non-profit organisation, charity or foundation",,,,,,,,,,,
INDIGO-ORG-0066,The Standard Bank Tutuwa Community Foundation,,,,"The Standard Bank Tutuwa Community Foundation was established 2016, and it purpose is to benefit communities in South Africa through the promotion of economic development and the alleviation of poverty.",ZA,"Registered non-profit organisation, charity or foundation",,,,,,,,http://www.tutuwafoundation.org,,,ZA
INDIGO-ORG-0067,Futuregrowth Asset Management,,,,,,,,,,,,,,,,,
INDIGO-ORG-0068,LGT Venture Philanthropy,,,,,,,,,,,,,,,,,
INDIGO-ORG-0069,Teens and Toddlers (now known as Power2),,,,,,,,,,,,,,,,,
INDIGO-ORG-0072,iDE (International Development Enterprises),,,,,,,,,,,,,,,,,
INDIGO-ORG-0073,USAID. United States Agency for International Development.,,,,,US,Government body,,,,,,,,,,,
INDIGO-ORG-0074,The Stone Family Foundation,,,,"Established in 2005, The Stone Family Foundation supports innovative, sustainable, entrepreneurial solutions to major social problems, in the UK and around the world.",GB,"Registered non-profit organisation, charity or foundation",,Paul Gunstensen,,,pgunstensen@thesff.com,,,http://thesff.com,,,
INDIGO-ORG-0075,Aldar Education,,,,,,,,,,,,,,,,,
INDIGO-ORG-0076,The Authority of Social Contribution – Ma’an,,,,,,,,,,,,,,,,,
INDIGO-ORG-0077,Department of Community Development (DCD),,,,,AE,Government body,,,,,,,,,,,
INDIGO-ORG-0078,Aldar Properties,,,,,,,,,,,,,,,,,
INDIGO-ORG-0079,Caritas Bern (Perspective),,,,,,,,,,,,,,,,,
INDIGO-ORG-0080,Fokus Bern,,,,,,,,,,,,,,,,,
INDIGO-ORG-0081,Invethos AG,,,,,,,,,,,,,,,,,
INDIGO-ORG-0082,Gesundheits- und Fürsorgedirektion Kanton Bern (Health and Welfare Directorate Canton Bern),,,,,CH,Government body,,,,,,,,,,,
INDIGO-ORG-0083,Social Impact Bond AG (contributing investors are not disclosed),,,,,,,,,,,,,,,,,
INDIGO-ORG-0084,P3 Charity (People Potential Possibilities),,,,,,,,,,,,,,,,,
INDIGO-ORG-0085,Gloucestershire County Council,,,,,,,,,,,,,,,,,
INDIGO-ORG-0086,Gloucestershire Clinical Commissioning Group,,,,,GB,Government body,,,,,,,,,,,
INDIGO-ORG-0087,Six district councils,,,,,GB,Government body,,,,,,,,,,,
INDIGO-ORG-0088,"Ministry of Housing, Communities and Local Government (MHCLG)",,,,,GB,Government body,,,,,,,,,,,
INDIGO-ORG-0089,IMPACT Académie,,,,,,,,,,,,,,,,,
INDIGO-ORG-0090,Impact Partenaires,,,,,,,,,,,,,,,,,
INDIGO-ORG-0091,The Road Home,,,,,,,,,,,,,,,,,
INDIGO-ORG-0092,The University of Utah's Criminal Justice Center (UCJC),,,,,,,,,,,,,,,,,
INDIGO-ORG-0094,Community Foundation of Utah (fiscal manager),,,,,,,,,,,,,,,,,
INDIGO-ORG-0095,Sorenson Impact Center,,,,Sorenson Impact is a think-and-do tank that focuses on solving social problems using data and innovation.,US,,,Caroline Ross,,,caroline.ross@sorensonimpact.com,,,https://sorensonimpactcenter.com/,,,United States
INDIGO-ORG-0096,"Salt Lake County, Utah",,,,,US,Government body,,,,,,,,,,,
INDIGO-ORG-0097,Northern Trust,,,,,,,,,,,,,,,,,
INDIGO-ORG-0098,Ally Bank,,,,,,,,,,,,,,,,,
INDIGO-ORG-0099,The Reinvestment Fund,,,,,,,,,,,,,,,,,
INDIGO-ORG-0100,Sorenson Impact Foundation,,,,,,,,,,,,,,,,,
INDIGO-ORG-0101,Sorenson Family Foundation,,,,,,,,,,,,,,,,,
INDIGO-ORG-0102,Family-Based Recovery Services at Yale Child Study Center,,,,,,,,,,,,,,,,,
INDIGO-ORG-0103,University of Connecticut Health Center (evaluator),,,,,,,,,,,,,,,,,
INDIGO-ORG-0106,Connecticut Department of Children and Families,,,,,US,Government body,,,,,,,,,,,
INDIGO-ORG-0109,Doris Duke Charitable Foundation,,,,,,,,,,,,,,,,,
INDIGO-ORG-0110,Laura and John Arnold Foundation,,,,,,,,,,,,,,,,,
INDIGO-ORG-0111,Nonprofit Finance Fund,,,,,,,,,,,,,,,,,
INDIGO-ORG-0112,Two anonymous family foundations,,,,,,,,,,,,,,,,,
INDIGO-ORG-0113,Action for Children,,,,,,,,,,,,,,,,,
INDIGO-ORG-0114,Manchester City Council,,,,,GB,Government body,,,,,,,,,,,
INDIGO-ORG-0115,Cabinet Office,,,,,GB,Government body,,,,,,,,,,,
INDIGO-ORG-0116,Liverpool City Council,,,,,GB,Government body,,,,,,,,,,,
INDIGO-ORG-0117,Wirral Council,,,,,GB,Government body,,,,,,,,,,,
INDIGO-ORG-0118,St. Helens Council,,,,,GB,Government body,,,,,,,,,,,
INDIGO-ORG-0119,Sefton Council,,,,,GB,Government body,,,,,,,,,,,
INDIGO-ORG-0120,Halton Borough Council,,,,,GB,Government body,,,,,,,,,,,
INDIGO-ORG-0121,Bridges Fund Management,,,,,,,,,,,,,,,,,
INDIGO-ORG-0123,HM Department for Education,,,,,GB,Government body,,,,,,,,,,,
INDIGO-ORG-0124,London Borough of Lewisham,,,,,GB,Government body,,,,,,,,,,,
INDIGO-ORG-0125,London Borough of Bromley,,,,,GB,Government body,,,,,,,,,,,
INDIGO-ORG-0126,Royal Borough of Greenwich,,,,,GB,Government body,,,,,,,,,,,
INDIGO-ORG-0127,St. Mungo's,,,,,,,,,,,,,,,,,
INDIGO-ORG-0128,Second Step,,,,,,,,,,,,,,,,,
INDIGO-ORG-0129,Bristol Drug Project,,,,,,,,,,,,,,,,,
INDIGO-ORG-0130,Bristol City Council,,,,,GB,Government body,,,,,,,,,,,
INDIGO-ORG-0132,Charities Aid Foundation Venturesome (CAF),,,,,,,,,,,,,,,,,
INDIGO-ORG-0133,Resonance West Midlands SITR Fund,,,,,,,,,,,,,,https://resonance.ltd.uk/for-investors/investment-opportunities/enterprise-growth-funds/resonance-west-midlands-sitr-fund,,,
INDIGO-ORG-0134,12 service providers managed by Prevista Ltd.,,,,,GB,,,,,,,,,,,,
INDIGO-ORG-0137,London Borough of Croydon,,,,,GB,Government body,,,,,,,,,,,
INDIGO-ORG-0138,Prevista,,,,,,,,,,,,,,,,,
INDIGO-ORG-0139,BeCode,,,,,,,,,,,,,,,,,
INDIGO-ORG-0140,VDAB (Flemish Service for Employment and Vocational Training),,,,,BE,Government body,,,,,,,,,,,
INDIGO-ORG-0141,PIO - Programma Innovatieve Overheidsopdrachten (Programme for Innovation Procurement),,,,,BE,Government body,,,,,,,,,,,
INDIGO-ORG-0142,Impact Capital,,,,,,,,,,,,,,,,,
INDIGO-ORG-0143,Various VCSE organisations,,,,,,,,,,,,,,,,,
INDIGO-ORG-0144,London Borough of Lambeth,,,,,GB,Government body,,,,,,,,,,,
INDIGO-ORG-0145,London Borough of Southwark,,,,,GB,Government body,,,,,,,,,,,
INDIGO-ORG-0146,Elton John AIDS Foundation,,,,,GB,"Registered non-profit organisation, charity or foundation",,,,,,,,https://www.eltonjohnaidsfoundation.org/,,,
INDIGO-ORG-0149,APM Workcare Ltd.,,,,,,,,,,,,,,,,,
INDIGO-ORG-0150,The Social Bonds Pilot team (within government of New Zealand),,,,,,,,,,,,,,,,,
INDIGO-ORG-0151,Ministry of Social Development,,,,,NZ,Government body,,,,,,,,,,,
INDIGO-ORG-0152,Prospect Investment Management,,,,,,,,,,,,,,,,,
INDIGO-ORG-0153,Janssen (of the Johnson & Johnson Family of Companies in New Zealand),,,,,,,,,,,,,,,,,
INDIGO-ORG-0155,Wilberforce Foundation,,,,,,,,,,,,,,,,,
INDIGO-ORG-0156,Associacao Tempos Brilhantes,,,,,,,,,,,,,,,,,
INDIGO-ORG-0157,Portugal Social Innovation Mission Unit,,,,,PT,Government body,,,,,,,,,,,
INDIGO-ORG-0158,Direcao Geral de Educacao,,,,,PT,Government body,,,,,,,,,,,
INDIGO-ORG-0159,EDUCOACH S.A,,,,,,,,,,,,,,,,,
INDIGO-ORG-0160,Fundacao Portugal Telecom,,,,,,,,,,,,,,,,,
INDIGO-ORG-0161,Denver Collaborative Partnership,,,,,,,,,,,,,,,,,
INDIGO-ORG-0163,Savio Management (fiscal agent),,,,,,,,,,,,,,,,,
INDIGO-ORG-0164,Social Impact Solutions (advisor),,,,,,,,,,,,,,,,,
INDIGO-ORG-0165,State of Colorado,,,,,US,Government body,,,,,,,,,,,
INDIGO-ORG-0166,Northern Trust Company,,,,,,,,,,,,,,,,,
INDIGO-ORG-0167,The Piton Foundation,,,,,,,,,,,,,,,,,
INDIGO-ORG-0169,The Y,,,,,,,,,,,,,,,,,
INDIGO-ORG-0170,YMCA England & Wales (Young Men's Christian Association),,,,,GB,"Registered non-profit organisation, charity or foundation",INDIGO-ORG-0170,,,,,,,https://ymca.org.uk/,"10-11 Charterhouse Square, London",EC1M 6EH,United Kingdom
INDIGO-ORG-0171,"Department for Culture, Media and Sport (DCMS)",,,,,GB,Government body,,,,,,,,https://www.gov.uk/government/organisations/department-for-digital-culture-media-sport,,,United Kingdom
INDIGO-ORG-0172,Retail Investors,,,,,,,,,,,,,,,,,
INDIGO-ORG-0173,Buzinezzclub,,,,,,,,,,,,,,,,,
INDIGO-ORG-0174,Deloitte ,,,,,,,,,,,,,,,,,
INDIGO-ORG-0175,Ortec Finance,,,,,,,,,,,,,,,,,
INDIGO-ORG-0176,Municipality of Rotterdam,,,,,NL,Government body,,,,,,,,,,,
INDIGO-ORG-0177,Start Foundation,,,,,,,,,,,,,,,,,
INDIGO-ORG-0178,ABN AMRO Bank,,,,,,,,,,,,,,,,,
INDIGO-ORG-0179,Gyan Shala,,,,,,,,,,,,,,,,,
INDIGO-ORG-0180,Kaivalya Education Foundation (KEF),,,,Kaivalya Education Foundation (KEF) is a social change organization working in the field of education in India.,IN,"Registered non-profit organisation, charity or foundation",,Seshadri Subrahmanyan,,,sesha1961@gmail.com,,,http://www.kefindia.org ,,,IN
INDIGO-ORG-0181,Dalberg Advisors,,,,,,,,,,,,,,,,,
INDIGO-ORG-0182,Educate Girls,,,,"Established in 2007, Educate Girls is a non-profit that focusses on mobilising communities for girls’ education in India’s rural and educationally backward areas. 

Strongly aligned with the ‘Right to Education Act’ or the ‘Samagra Siksha’, Educate Girls is committed to the Government’s vision to improve access to primary education for children, especially young girls. ",IN,"Registered non-profit organisation, charity or foundation",,Alison Bukhari,,,alison.bukhari@educategirls.ngo,,,http://www.educategirls.ngo,,,IN
INDIGO-ORG-0183,ConveGenius Insights (previously known as Gray Matters India),,,,,IN,,,,,,,,,https://www.convegeniusinsights.com/,,,India 
INDIGO-ORG-0185,Michael and Susan Dell Foundation,,,,"The Michael & Susan Dell Foundation is dedicated to transforming the lives of children living in urban poverty through improving their education, health and family economic stability.",US,"Registered non-profit organisation, charity or foundation",,Ver Vikas,,,ver.vikas@gmail.com,,,https://www.msdf.org,,,
INDIGO-ORG-0186,Comic Relief,,,,"Comic Relief is a major UK charity, with a vision of a just world, free from poverty.",GB,"Registered non-profit organisation, charity or foundation",,Jen Gordon,,,j.gordon@comicrelief.com,,,https://www.comicrelief.com,,,GB
INDIGO-ORG-0187,British Telecom,,,,,GB,"Registered company, partnership or commercial association",,,,,,,,,,,
INDIGO-ORG-0188,The Mittal Foundation,,,,,GB,"Registered non-profit organisation, charity or foundation",,,,,,,,,,,
INDIGO-ORG-0190,British Asian Trust,,,,"The British Asian Trust is a diaspora-led international development organisation, founded in 2007 by His Majesty King Charles III and a group of British Asian business leaders to tackle widespread poverty, inequality and injustice in South Asia. The Trust specialises in, and champion the use of, social finance products to drive positive change across the region. In India, 3 of the country’s 5 development impact bonds (DIBs) have been conceptualised and executed by the British Asian Trust – the Quality Education India DIB, the Skill Impact Bond, and the LiftEd DIB. In Pakistan, the Trust is currently developing the country’s first outcomes-based initiative and is gearing up to launch an impact bond in employment. ",GB,"Registered non-profit organisation, charity or foundation",,Rhea Miranda,,,Rhea.Miranda@britishasiantrust.org,,,https://www.britishasiantrust.org,,,GB
INDIGO-ORG-0197,Gewaltschutzzentrum Oberösterreich (Center for Protection Against Violence Upper Austria),,,,,,,,,,,,,,,,,
INDIGO-ORG-0198,Frauenhaus Linz (Women’s Shelter Linz),,,,,,,,,,,,,,,,,
INDIGO-ORG-0199,Wirtschaftsprüfungsgesellschaft m.b.H. Ernst & Young (Auditing Firm Ernst & Young),,,,,,,,,,,,,,,,,
INDIGO-ORG-0200,"NPO & SE Kompetenzzentrum, WU Wien (Competence Center for Nonprofit Organizations and Social Entrepreneurship at the Vienna University of Economics and Business)",,,,,,,,,,,,,,,,,
INDIGO-ORG-0203,Institut für Konfliktforschung (Institute of Conflict Research),,,,,,,,,,,,,,,,,
INDIGO-ORG-0204,Juvat gGmbH,,,,,,,,,,,,,,,,,
INDIGO-ORG-0205,"Bundesministerium für Bildung und Frauen (Austrian Federal Ministry of Labor, Social Affairs, and Consumer Protection)",,,,,AT,Government body,,,,,,,,,,,
INDIGO-ORG-0206,ERSTE österreichische Spar-Casse Privatstiftung (ERSTE Foundation),,,,,,,,,,,,,,,,,
INDIGO-ORG-0207,Familie Scheuch Privatstiftung (Scheuch Family Private Foundation),,,,,,,,,,,,,,,,,
INDIGO-ORG-0208,HiL-Foundation,,,,,,,,,,,,,,,,,
INDIGO-ORG-0209,Schweighofer Privatstiftung Beteiligungsverwaltung GmbH (Schweighofer Private Foundation),,,,,,,,,,,,,,,,,
INDIGO-ORG-0210,1625 Independent People,,,,,GB,,,,,,,,,,,,
INDIGO-ORG-0211,North Somerset Council,,,,,GB,Government body,,,,,,,,,,,
INDIGO-ORG-0212,South Gloucestershire Council,,,,,GB,Government body,,,,,,,,,,,
INDIGO-ORG-0213,Bath & North East Somerset Council,,,,,GB,Government body,,,,,,,,,,,
INDIGO-ORG-0214,"RichmondPRA Limited known as ""Flourish Australia""",,,,,,,,,,,,,,,,,
INDIGO-ORG-0216,New South Wales Health,,,,,AU,Government body,,,,,,,,,,,
INDIGO-ORG-0217,"Investors range from high net worth individuals and foundations, through to institutional investors such as NGS Super and Grosvenor Pirie Super.",,,,,,,,,,,,,,,,,
INDIGO-ORG-0218,Movement,,,,,,,,,,,,,,,,,
INDIGO-ORG-0219,Social Finance Israel,,,,,,,,,,,,,,,,,
INDIGO-ORG-0221,Isreali Health Maintenance Organisations Clalit and Leumit,,,,,IL,Government body,,,,,,,,,,,
INDIGO-ORG-0222,National Insurance Institute,,,,,IL,Government body,,,,,,,,,,,
INDIGO-ORG-0223,Multiple investors,,,,,,,,,,,,,,,,,
INDIGO-ORG-0224,Granite School District,,,,,,,,,,,,,,,,,
INDIGO-ORG-0225,Park City School District,,,,,,,,,,,,,,,,,
INDIGO-ORG-0226,Guadalupe School,,,,,,,,,,,,,,,,,
INDIGO-ORG-0227,YMCA of Northern Utah,,,,,,,,,,,,,,,,,
INDIGO-ORG-0228,Children's Express,,,,,,,,,,,,,,,,,
INDIGO-ORG-0229,Lit'l Scholars,,,,,,,,,,,,,,,,,
INDIGO-ORG-0230,Utah State University's Early Intervenion Research Institute,,,,,,,,,,,,,,,,,
INDIGO-ORG-0231,United Way of Salt Lake,,,,,,,,,,,,,,https://uw.org/,,,
INDIGO-ORG-0232,Voices for Utah Children,,,,,,,,,,,,,,,,,
INDIGO-ORG-0234,United Way of Salt Lake and Salt Lake County (cohort 1),,,,,US,"Registered non-profit organisation, charity or foundation",,,,,,,,,,,
INDIGO-ORG-0235,State of Utah (cohorts 2 - 5),,,,,US,Government body,,,,,,,,,,,
INDIGO-ORG-0237,J.B. & M.K. Pritzker Family Foundation,,,,,,,,,,,,,,,,,
INDIGO-ORG-0238,L'Association pour le Droit à l'Initiative Economique (Association for the Right to Economic Initiative),,,,,,,,,,,,,,,,,
INDIGO-ORG-0239,KPMG,,,,,,,,,,,,,,,,,
INDIGO-ORG-0240,Renault Mobiliz Invest,,,,,,,,,,,,,,,,,
INDIGO-ORG-0241,AG2R La Mondiale,,,,,,,,,,,,,,,,,
INDIGO-ORG-0242,Fondation Avril,,,,,,,,,,,,,,,,,
INDIGO-ORG-0243,International Committee of the Red Cross,International Committee of the Red Cross (ICRC),,,The International Committee of the Red Cross (ICRC) is a humanitarian institution ensuring humanitarian protection and assistance for victims of war and other situations of violence. The ICRC launched the first Humanitarian Impact Bond in 2017.,CH,"Registered non-profit organisation, charity or foundation",,Juan Coderque,,,jcoderque@icrc.org,,,https://www.icrc.org/en,,,Switzerland
INDIGO-ORG-0244,Philanthropy Associate (evaluator),,,,,,,,,,,,,,,,,
INDIGO-ORG-0245,Norton Rose Fulbright,,,,,,,,,,,,,,,,,
INDIGO-ORG-0246,Marten Touw (design & structuring-pro bono),,,,,,,,,,,,,,,,,
INDIGO-ORG-0248,La Caixa Foundation,,,,,ES,"Registered non-profit organisation, charity or foundation",,,,,,,,,,,
INDIGO-ORG-0249,Government of Switzerland,,,,,CH,Government body,,,,,,,,,,,
INDIGO-ORG-0250,Government of Belgium,,,,,BE,Government body,,,,,,,,,,,
INDIGO-ORG-0251,Government of Italy,,,,,IT,Government body,,,,,,,,,,,
INDIGO-ORG-0253,European institutional investors and high net worth individuals.,,,,,,,,,,,,,,,,,
INDIGO-ORG-0254,GM Homes Partnership (a consortium put together by One Manchester & Trafford Housing Trust),,,,,,,,,,,,,,,,,
INDIGO-ORG-0255,Great Places,,,,,,,,,,,,,,,,,
INDIGO-ORG-0256,Greater Manchester Combined Authority (GMCA),,,,,GB,Government body,,,,,,,,,,,
INDIGO-ORG-0257,One Manchester,,,,,,,,,,,,,,,,,
INDIGO-ORG-0258,Trafford Housing Trust,,,,,,,,,,,,,,,,,
INDIGO-ORG-0259,NorthCare,,,,,,,,,,,,,,,,,
INDIGO-ORG-0260,University of Oklahoma Biomedical and Behavioral Methodology Core,,,,,,,,,,,,,,,,,
INDIGO-ORG-0261,Cross Sector Innovation (technical assistance and transaction structuring),,,,,,,,,,,,,,,,,
INDIGO-ORG-0262,Oklahoma Department of Human Services,,,,,US,Government body,,,,,,,,,,,
INDIGO-ORG-0263,Arnall Family Foundation,,,,,,,,,,,,,,,,,
INDIGO-ORG-0264,Children Support Services Limited (CSSL),,,,,,,,,,,,,,,,,
INDIGO-ORG-0265,Essex County Council,,,,,GB,Government body,,,,,,,,,,,
INDIGO-ORG-0266,Barrow Cadbury Charitable Trust,,,,,,,,,,,,,,,,,
INDIGO-ORG-0268,Esmee Fairbairn Foundation,,,,,,,,,,,,,,,,,
INDIGO-ORG-0269,King Baudouin Foundation,,,,,,,,,,,,,,,,,
INDIGO-ORG-0270,Ananda Social Venture Fund,,,,,,,,,,,,,,,,,
INDIGO-ORG-0271,The Tudor Trust,,,,,,,,,,,,,,,,,
INDIGO-ORG-0272,Perth and District YMCA,,,,,,,,,,,,,,,,,
INDIGO-ORG-0273,Indigo Project Solutions,,,,,,,,,,,,,,,,,
INDIGO-ORG-0274,"Local investors: Aberfeldy Church of Scotland, a regional development organisation, local businesses and individuals",,,,,,,,,,,,,,,,,
INDIGO-ORG-0275,Fundación Alvaralice,,,,,,,,,,,,,,,,,
INDIGO-ORG-0276,Fundación Carvajal,,,,,,,,,,,,,,,,,
INDIGO-ORG-0278,Corporación Inversor,,Investor Corporation,ES,,CO,"Registered company, partnership or commercial association",,,,,,,,https://www.inversor.org.co/en/home/,,,
INDIGO-ORG-0279,Instiglio,,,,"Instiglio is a non-profit advisory firm specialised in Results-Based Financing for low- and middle-income countries. Its mission is to empower leaders in the social, public, and private sectors to improve the impact of social programs in developing countries by tying funding to results. ",CO,"Registered non-profit organisation, charity or foundation",,Avnish Gungadurdoss,,,,,,https://www.instiglio.org/en,,,Colombia
INDIGO-ORG-0280,Durán & Osorio,,,,,,,,,,,,,,,,,
INDIGO-ORG-0282,Swiss State Secretariat of Economic Affairs (SECO),,,,"The State Secretariat for Economic Affairs – SECO is the Swiss federal government's center of expertise for all core issues relating to economic policy. SECO’s Economic Cooperation and Development Division is responsible for the planning and implementation of Switzerland’s economic development cooperation. The overall objective is to promote economically, environmentally and socially sustainable growth that will create new jobs, encourage higher productivity and contribute to reducing poverty and inequality.",CH,Government body,,Miroslav Delaporte,,,info.cooperation@seco.admin.ch,,,https://www.seco-cooperation.admin.ch/secocoop/en/home.html ,,,CH
INDIGO-ORG-0283,Fundación Corona,,Corona Foundation,ES,"Fundación Corona is a private nonprofit organization that supports and funds initiatives oriented towards strengthening the institutional capacity of the country in four strategic social sectors: education, health, entrepreneurial development and local and community development.",CO,"Registered non-profit organisation, charity or foundation",,Daniel Uribe,,,duribep@fcorona.org,,,http://www.fundacioncorona.org,,,CO
INDIGO-ORG-0284,Fundación Mario Santo Domingo,,,,,,,,,,,,,,,,,
INDIGO-ORG-0285,Fundación Bolívar Davivienda,,,,,,,,,,,,,,,,,
INDIGO-ORG-0286,Fundación Plan,,,,,,,,,,,,,,,,,
INDIGO-ORG-0287,Fundación WWB Colombia,,,,,,,,,,,,,,,,,
INDIGO-ORG-0288,Community Links,,,,,,,,,,,,,,,,,
INDIGO-ORG-0289,Stratford Development Partnerships,,,,,,,,,,,,,,,,,
INDIGO-ORG-0290,Jefferson County School District R-1,,,,,,,,,,,,,,,,,
INDIGO-ORG-0291,Jefferson County Human Services,,,,,,,,,,,,,,,,,
INDIGO-ORG-0292,Colorado Evaluation and Action Lab (University of Denver),,,,,,,,,,,,,,,,,
INDIGO-ORG-0294,Community First Foundation,,,,,,,,,,,,,,,,,
INDIGO-ORG-0295,Tuscaloosa VA Medical Center,,,,,,,,,,,,,,,,,
INDIGO-ORG-0296,Westat,,,,,,,,,,,,,,,,,
INDIGO-ORG-0298,Commonwealth of Massachusetts,,,,,US,Government body,,,,,,,,,,,
INDIGO-ORG-0299,City of Boston,,,,,US,Government body,,,,,,,,,,,
INDIGO-ORG-0300,US Department of Veterans Affairs Center for Innovation,,,,,US,Government body,,,,,,,,,,,
INDIGO-ORG-0301,Corporation for National and Community Service (Social Innovation Fund),,,,,US,Government body,,,,,,,,,,,
INDIGO-ORG-0302,The Dakota Foundation,,,,,,,,,,,,,,,,,
INDIGO-ORG-0303,Deutsche Bank,,,,,,,,,,,,,,,,,
INDIGO-ORG-0304,The Robin Hood Foundation,,,,,,,,,,,,,,,,,
INDIGO-ORG-0305,HCT Group,,,,,,,,,,,,,,,,,
INDIGO-ORG-0306,The National Lottery Community Fund,,,,,GB,Government body,,,,,,,,,,,
INDIGO-ORG-0308,First Step House,,,,,,,,,,,,,,,,,
INDIGO-ORG-0310,Living Cities,,,,,,,,,,,,,,,,,
INDIGO-ORG-0311,EDUCOM (Associacao Portuguesa de Telematica Educativa),,,,,,,,,,,,,,,,,
INDIGO-ORG-0312,Lega S Jugendhilfe gGmBH (Lega S youth welfare gGmbH),,,,,,,,,,,,,,,,,
INDIGO-ORG-0313,Landkreis Osnabrück (commissioner) and evaluation commissioned by Bertelsmann Stiftung,,,,,,,,,,,,,,,,,
INDIGO-ORG-0315,Landkreis Osnabrück (District of Osnabrück),,,,,DE,Government body,,,,,,,,,,,
INDIGO-ORG-0316,Kreissparkasse Bersenbrück (saving bank Bersenbrück ),,,,,,,,,,,,,,,,,
INDIGO-ORG-0318,Worcestershire County Council,,,,,GB,Government body,,,,,,,,,,,
INDIGO-ORG-0319,Redditch & Bromsgrove Clinical Commissioning Group,,,,,GB,Government body,,,,,,,,,,,
INDIGO-ORG-0320,South Worcestershire Clinical Commissioning Group,,,,,GB,Government body,,,,,,,,,,,
INDIGO-ORG-0321,Wyre Forest Clinical Commissioning Group,,,,,GB,Government body,,,,,,,,,,,
INDIGO-ORG-0322,Nesta Impact Investments,,,,,,,,,,,,,,,,,
INDIGO-ORG-0324,Age UK,,,,,,,,,,,,,,,,,
INDIGO-ORG-0325,Anchor Construction,,,,,,,,,,,,,,,,,
INDIGO-ORG-0326,DC Water (evaluator),,,,,,,,,,,,,,,,,
INDIGO-ORG-0327,unknown independent validator,,,,,,,,,,,,,,,,,
INDIGO-ORG-0329,Public Financial Management,,,,,,,,,,,,,,,,,
INDIGO-ORG-0331,Quantified Ventures (PFS transaction coordinator),,,,,,,,,,,,,,,,,
INDIGO-ORG-0332,DC Water and Sewer Authority,,,,,US,Government body,,,,,,,,,,,
INDIGO-ORG-0334,Calvert Foundation,,,,,,,,,,,,,,,,,
INDIGO-ORG-0335,Article 1,,,,,,,,,,,,,,,,,
INDIGO-ORG-0336,Citizen Capital,,,,,,,,,,,,,,,,,
INDIGO-ORG-0337,Ministry of Agriculture and Food (Ministère de l’Agriculture et de l’Alimentation),,,,,FR,Government body,,,,,,,,,,,
INDIGO-ORG-0339,Fonds B,,,,,FR,"Registered non-profit organisation, charity or foundation",,,,,,,,,,,
INDIGO-ORG-0340,La Banque des Territoires (Groupe Caisse des Dépots),,,,,,,,,,,,,,,,,
INDIGO-ORG-0341,Cancer Scan Co.,,,,,,,,,,,,,,,,,
INDIGO-ORG-0343,Hiroshima Prefecture,,,,,JP,Government body,,,,,,,,,,,
INDIGO-ORG-0344,Takehara City,,,,,JP,Government body,,,,,,,,,,,
INDIGO-ORG-0345,Onomichi City,,,,,JP,Government body,,,,,,,,,,,
INDIGO-ORG-0346,Fukuyama City,,,,,JP,Government body,,,,,,,,,,,
INDIGO-ORG-0347,Fuchu City,,,,,JP,Government body,,,,,,,,,,,
INDIGO-ORG-0348,Miyoshi City,,,,,JP,Government body,,,,,,,,,,,
INDIGO-ORG-0349,Kashihara City,,,,,JP,Government body,,,,,,,,,,,
INDIGO-ORG-0350,Social Investment Promotion Foundation,,,,,,,,,,,,,,,,,
INDIGO-ORG-0351,Hiroshima Bank,,,,,,,,,,,,,,,,,
INDIGO-ORG-0352,Mizuho Bank,,,,,,,,,,,,,,,,,
INDIGO-ORG-0353,General private investors (Cloudfunding),,,,,,,,,,,,,,,,,
INDIGO-ORG-0354,Movimento de Defesa da Vida (Mouvement for the Defense of Life),,,,,,,,,,,,,,https://www.mdvida.pt/,,,
INDIGO-ORG-0355,MAZE,,,,"MAZE works alongside impact ventures and investors to scale effective solutions for social and environmental challenges. They currently run three acceleration programmes in Lisbon and Porto. Since 2014, they have launched 4 Social Impact Bonds and raised 3 million euros investment for impact ventures in Portugal.",PT,"Registered company, partnership or commercial association",,Margarida Anselmo,,,margarida@maze-impact.com,,,https://maze-impact.com/,Lisbon,,Portugal
INDIGO-ORG-0357,Calouste Gulbenkian Foundation,,,,,,,,,,,,,,,,,
INDIGO-ORG-0358,Caixa Economica Montepio Geral,,,,,,,,,,,,,,,,,
INDIGO-ORG-0359,BEST Network (Charity) members,,,,,,,,,,,,,,,,,
INDIGO-ORG-0360,St Pauls Community Trust,,,,,,,,,,,,,,,,,
INDIGO-ORG-0361,Merlin Venture Ltd,,,,,,,,,,,,,,,,,
INDIGO-ORG-0362,Employment Needs Training Agency (ENTA),,,,,,,,,,,,,,,,,
INDIGO-ORG-0363,Birmingham Disability Resource Centre,,,,,,,,,,,,,,,,,
INDIGO-ORG-0364,Focus Enterprises,,,,,,,,,,,,,,,,,
INDIGO-ORG-0365,Birmingham Institute for the Deaf,,,,,,,,,,,,,,,,,
INDIGO-ORG-0366,Worth Unlimited,,,,,,,,,,,,,,,,,
INDIGO-ORG-0367,Gateway Family Services,,,,,,,,,,,,,,,,,
INDIGO-ORG-0368,Autism West Midlands,,,,,,,,,,,,,,,,,
INDIGO-ORG-0369,Createafuture,,,,,,,,,,,,,,,,,
INDIGO-ORG-0370,Crossmatch Solutions,,,,,,,,,,,,,,,,,
INDIGO-ORG-0371,"Rathbones
ENTA",,,,,,,,,,,,,,,,,
INDIGO-ORG-0372,Birmingham Institute,,,,,,,,,,,,,,,,,
INDIGO-ORG-0373,Advance Personnel Management (APM) UK Ltd,,,,,,,,,,,,,,,,,
INDIGO-ORG-0374,Home Group,,,,,,,,,,,,,,,,,
INDIGO-ORG-0375,Depaul,,,,,,,,,,,,,,,,,
INDIGO-ORG-0376,Your Homes Newcastle,,,,,,,,,,,,,,,,,
INDIGO-ORG-0377,Oasis Aquila,,,,,,,,,,,,,,,,,
INDIGO-ORG-0378,Changing Lives,,,,,,,,,,,,,,,,,
INDIGO-ORG-0379,Framework Partners,,,,,,,,,,,,,,,,,
INDIGO-ORG-0380,Numbers for Good,,,,,,,,,,,,,,,,,
INDIGO-ORG-0381,North Star Ventures,,,,,,,,,,,,,,,,,
INDIGO-ORG-0382,Aino Health Management Oy,,,,,,,,,,,,,,,,,
INDIGO-ORG-0383,Headsted Oy,,,,,,,,,,,,,,,,,
INDIGO-ORG-0384,Tietotaito Group Oy and Trainers’ House Oyj,,,,,,,,,,,,,,,,,
INDIGO-ORG-0385,Epiqus Oy,,,,,,,,,,,,,,,,,
INDIGO-ORG-0386,Public sector employers,,,,,FI,Government body,,,,,,,,,,,
INDIGO-ORG-0387,Sitra,Finnish Innovation Fund Sitra,,,"Sitra – The Finnish Innovation Fund is an independent public fund which, under the supervision of the Finnish Parliament, promotes the welfare of Finnish society.
",FI,Government body,,Mika Pyykkö,,,mika.pyykko@sitra.fi,,,https://www.sitra.fi/en/,Helsinki,,Finland
INDIGO-ORG-0388,Me-säätiö (Me Foundation),,,,,,,,,,,,,,https://www.mesaatio.fi/,,,
INDIGO-ORG-0389,Henri Kulvik,,,,,,,,,,,,,,,,,
INDIGO-ORG-0390,We Foundation,,,,,,,,,,,,,,,,,
INDIGO-ORG-0391,DAI Global,,,,DAI runs a World Bank project in Palestine which includes a DIB focused on workforce development; they are also currently pitching another project focused on climate smart agriculture.,PS,,,John Maris,,,john_maris@dai.com,,,https://www.dai.com,,,PS
INDIGO-ORG-0392,Ramallah-based management team,,,,,,,,,,,,,,,,,
INDIGO-ORG-0394,World Bank Group Trust Fund for Gaza and West Bank (TFGWB),,,,,US,"Multilateral, bilateral or intergovernmental body",,,,,,,,,,,
INDIGO-ORG-0395,World Bank Group State and Peacebuilding Fund (SPF),,,,,US,"Multilateral, bilateral or intergovernmental body",,,,,,,,,,,
INDIGO-ORG-0396,Palestine Investment Fund (PIF),,,,,,,,,,,,,,,,,
INDIGO-ORG-0397,European Bank for Reconstruction and Development (EBRD),European Bank for Reconstruction and Development (EBRD),,,,,"Multilateral, bilateral or intergovernmental body",,Khadija Ait-Kadi,,,aitkadik@ebrd.com,,,https://www.ebrd.com/home,,,
INDIGO-ORG-0398,FMO (the Netherlands Development Finance Company),,,,,,,,,,,,,,,,,
INDIGO-ORG-0399,"Invest Palestine (through the Chilean-Palestinian Disapora Investment Fund ""Semilla de Olivo"")",,,,,,,,,,,,,,,,,
INDIGO-ORG-0400,Daekyo Consortium (Daekyo Culture Foundation Daekyo Co. Ltd.),,,,,,,,,,,,,,,,,
INDIGO-ORG-0403,Pan-Impact Korea,,,,,,,,,,,,,,,,,
INDIGO-ORG-0404,Seoul Metropolitan Government,,,,,KR,Government body,,,,,,,,,,,
INDIGO-ORG-0405,People and Peace Link,,,,,,,,,,,,,,,,,
INDIGO-ORG-0406,UBS Securities Pte. Ltd.,,,,,,,,,,,,,,,,,
INDIGO-ORG-0407,Merry Year Social Company,,,,,,,,,,,,,,,,,
INDIGO-ORG-0408,London Borough of Barnet,,,,,GB,Government body,,,,,,,,,,,
INDIGO-ORG-0409,London Borough of Camden,,,,,GB,Government body,,,,,,,,,,,
INDIGO-ORG-0412,Roca,,,,,,,,,,,,,,,,,
INDIGO-ORG-0413,SIBalytics (evaluator),,,,,,,,,,,,,,,,,
INDIGO-ORG-0414,The Urban Institute,,,,,,,,,,,,,,,,,
INDIGO-ORG-0415,Public Consulting Group (validator),,,,,,,,,,,,,,,,,
INDIGO-ORG-0416,Youth Services,,,,,,,,,,,,,,,,,
INDIGO-ORG-0418,US Department of Labor,,,,,US,Government body,,,,,,,,,,,
INDIGO-ORG-0419,Goldman Sachs (Social Impact Fund),,,,,,,,,,,,,,,,,
INDIGO-ORG-0420,Kresge Foundation,,,,,,,,,,,,,,,,,
INDIGO-ORG-0421,New Profit Inc.,,,,,,,,,,,,,,,,,
INDIGO-ORG-0422,The Boston Foundation,,,,,,,,,,,,,,,,,
INDIGO-ORG-0423,Family Psychology Mutual (Functional Family Therapy LLC),,,,,,,,,,,,,,,,,
INDIGO-ORG-0424,Family Action UK,,,,,,,,,,,,,,,,,
INDIGO-ORG-0425,South West London and St George's Mental Health NHS Trust,,,,,,,,,,,,,,,,,
INDIGO-ORG-0426,London Borough of Sutton,,,,,GB,Government body,,,,,,,,,,,
INDIGO-ORG-0427,London Borough of Tower Hamlets,,,,,GB,Government body,,,,,,,,,,,
INDIGO-ORG-0428,London Borough of Bexley,,,,,GB,Government body,,,,,,,,,,,
INDIGO-ORG-0429,London Borough of Merton,,,,,GB,Government body,,,,,,,,,,,
INDIGO-ORG-0430,London Borough of Newham,,,,,GB,Government body,,,,,,,,,,,
INDIGO-ORG-0431,Thames Reach,,,,,,,,,,,,,,,,,
INDIGO-ORG-0432,Greater London Authority (GLA),,,,,GB,Government body,,,,,,,,,,,
INDIGO-ORG-0433,Social Enterprise Investment Fund (SEIF),,,,,,,,,,,,,,,,,
INDIGO-ORG-0434,Magrabi ICO Cameroon Eye Institute (MICEI),,,,,,,,,,,,,,,,,
INDIGO-ORG-0435,Volta Capital,,Volta Capital,,Volta Capital specialises in providing bespoke services that assist major players in the impact economy to establish strategies that mobilise funding to meet the needs of underserved communities and generate increased impact.,,"Registered company, partnership or commercial association",,Liesbet Peeters,,,liesbet@voltacapital.com,,,http://www.voltacapital.com/,"35-37 Ludgate Hill, London, EC4M 7JZ, United Kingdom",EC4M 7JZ,United Kingdom
INDIGO-ORG-0436,European Agency for Development and Health (AEDES),,,,,,,,,,,,,,,,,
INDIGO-ORG-0437,Linklaters,,,,,,,,,,,,,,,,,
INDIGO-ORG-0438,Conrad N. Hilton Foundation,,,,,US,"Registered non-profit organisation, charity or foundation",,,,,,,,,,,
INDIGO-ORG-0439,The Fred Hollows Foundation,,,,The Fred Hollows Foundation is international development organisation working towards eliminating avoidable blindness and improving Indigenous Australian health.,AU,"Registered non-profit organisation, charity or foundation",,Kirsten Armstrong,,,karmstrong@hollows.org,,,https://www.hollows.org/au/home,,,Australia
INDIGO-ORG-0440,Sightsavers,,,,,GB,"Registered non-profit organisation, charity or foundation",,,,,,,,,,,
INDIGO-ORG-0441,OPIC (Overseas Private Investment Corporation),,,,,,,,,,,,,,,,,
INDIGO-ORG-0442,Netri Foundation,,,,,,,,,,,,,,,,,
INDIGO-ORG-0443,ArboNed,,,,,,,,,,,,,,,,,
INDIGO-ORG-0444,Re-turn,,,,,,,,,,,,,,,,,
INDIGO-ORG-0445,TNO and Tilburg University (investigate the effect financed by ZonMw),,,,,,,,,,,,,,,,,
INDIGO-ORG-0447,De Amersfoortse,,,,,NL,"Registered company, partnership or commercial association",,,,,,,,,,,
INDIGO-ORG-0448,ABN-AMRO Social Impact Fund,,,,,,,,,,,,,,,,,
INDIGO-ORG-0449,Associacao Sapana,,,,,,,,,,,,,,,,,
INDIGO-ORG-0450,Direcao-Geral de Reinsercao e Servicos Prisionais (General Directorate for Reinsertion and Prison Services),,,,,PT,Government body,,,,,,,,,,,
INDIGO-ORG-0451,Apps4mobility International Lda,,,,,,,,,,,,,,,,,
INDIGO-ORG-0452,Urban Futures,,,,,,,,,,,,,,,,,
INDIGO-ORG-0453,Fit for Sport,,,,,,,,,,,,,,,,,
INDIGO-ORG-0454,Catalyst Gateway,,,,,,,,,,,,,,,,,
INDIGO-ORG-0455,Twist,,,,,,,,,,,,,,,,,
INDIGO-ORG-0456,Arrival Education,,,,,,,,,,,,,,,,,
INDIGO-ORG-0457,Positive Arts,,,,,,,,,,,,,,,,,
INDIGO-ORG-0458,Kangaroo Foundation Cameroon,,,,,,,,,,,,,,,,,
INDIGO-ORG-0459,Kangaroo Foundation Colombia,,,,,,,,,,,,,,,,,
INDIGO-ORG-0460,10 hospitals (including Center of Excellence Laquintinie hospital in Douala),,,,,CM,,,,,,,,,,,,
INDIGO-ORG-0463,Morrison & Foerster,,,,,,,,,,,,,,,,,
INDIGO-ORG-0465,"Ministry of Public Health, Cameroon (via the World Bank’s Global Financing Facility)",,,,,CM,Government body,,,,,,,,,,,
INDIGO-ORG-0466,Nutrition International,,,,,CA,Government body,,,,,,,,,,,
INDIGO-ORG-0467,Grand Challenges Canada (GCC),,,,,,,,,,,,,,,,,
INDIGO-ORG-0468,Abode Services,,,,,,,,,,,,,,,,,
INDIGO-ORG-0469,University of California School of Medicine (San Francisco),,,,,,,,,,,,,,,,,
INDIGO-ORG-0472,County representative in conjunction with Adobe representative constitute the Project Manager,,,,,,,,,,,,,,,,,
INDIGO-ORG-0474,Palantir Technologies (technology partner),,,,,,,,,,,,,,,,,
INDIGO-ORG-0475,"County of Santa Clara, California",,,,,US,Government body,,,,,,,,,,,
INDIGO-ORG-0476,County Housing Funds,,,,,US,Government body,,,,,,,,,,,
INDIGO-ORG-0477,The Sobrato Family Foundation,,,,,,,,,,,,,,,,,
INDIGO-ORG-0478,The California Endowment,,,,,,,,,,,,,,,,,
INDIGO-ORG-0479,The Health Trust,,,,,,,,,,,,,,,,,
INDIGO-ORG-0480,Corporation for Supportive Housing,,,,,,,,,,,,,,,,,
INDIGO-ORG-0481,The James Irvine Foundation,,,,,,,,,,,,,,,,,
INDIGO-ORG-0482,Dyslexia Action and Include (subsidiary of Catch22),,,,,,,,,,,,,,,,,
INDIGO-ORG-0483,3SC,,,,,GB,,,,,,,,,,,,
INDIGO-ORG-0484,Wimoov,,,,,,,,,,,,,,,,,
INDIGO-ORG-0487,Ecofi Investissements,,,,,,,,,,,,,,,,,
INDIGO-ORG-0488,First Contact Clinical,,,,,,,,,,,,,,,,,
INDIGO-ORG-0489,Mental Health Concern,,,,,,,,,,,,,,,,,
INDIGO-ORG-0490,HealthWORKS Newcastle,,,,,,,,,,,,,,,,,
INDIGO-ORG-0491,Ways to Wellness,,,,,,,,,,,,,,,,,
INDIGO-ORG-0492,NHS North East Quality Observatory System (NEQOS),,,,,,,,,,,,,,,,,
INDIGO-ORG-0493,Rocket Science,,,,,,,,,,,,,,,,,
INDIGO-ORG-0494,Vital Services North East,,,,,,,,,,,,,,,,,
INDIGO-ORG-0495,Newcastle Gateshead CCG,,,,,GB,Government body,,,,,,,,,,,
INDIGO-ORG-0496,AMIA (Argentine Israelite Mutual Association),,,,,,,,,,,,,,,,,
INDIGO-ORG-0497,Fundacion Forge,,,,,,,,,,,,,,,,,
INDIGO-ORG-0498,Fundacion Pescar,,,,,,,,,,,,,,,,,
INDIGO-ORG-0499,Fundacion Reciduca,,,,,,,,,,,,,,,,,
INDIGO-ORG-0500,Acrux Partners,,,,,,,,,,,,,,,,,
INDIGO-ORG-0502,Beccar Varela Law Firm,,,,,,,,,,,,,,,,,
INDIGO-ORG-0503,Fundacion Alimentaris,,,,,,,,,,,,,,,,,
INDIGO-ORG-0504,Government of the City of Buenos Aires,,,,,AR,Government body,,,,,,,,,,,
INDIGO-ORG-0505,Banco Ciudad de Buenos Aires (Bank of the City of Buenos Aires),,,,,,,,,,,,,,,,,
INDIGO-ORG-0506,Banco Galicia,,,,,,,,,,,,,,https://www.bancogalicia.com/banca/online/web/Eminent,J.D. Perón 407,C1038AAI,Argentina
INDIGO-ORG-0507,IRSA Propiedades Comerciales (IRSA Commercial Properties),,,,,,,,,,,,,,https://www.irsa.com.ar,"Moreno 877, piso 23",C1091AAQ,Argentina
INDIGO-ORG-0508,Organizacion Roman,,,,,,,,,,,,,,,,,
INDIGO-ORG-0509,Private investor,,,,,,,,,,,,,,,,,
INDIGO-ORG-0510,IDB - Inter-American Development Bank,,,,,,,,,,,,,,https://bidlab.org/en,1300 New York Ave NW,20005,"Washington DC, US"
INDIGO-ORG-0511,Spectrum Health,,,,,,,,,,,,,,,,,
INDIGO-ORG-0512,Arbor Circle,,,,,,,,,,,,,,,,,
INDIGO-ORG-0513,Cherry Health,,,,,,,,,,,,,,,,,
INDIGO-ORG-0514,Grand Rapids Kent County Health Department,,,,,,,,,,,,,,,,,
INDIGO-ORG-0515,Michigan Department of Health and Human Services,,,,,,,,,,,,,,,,,
INDIGO-ORG-0516,The Youth Policy Lab,,,,,,,,,,,,,,,,,
INDIGO-ORG-0517,Michigan State University,,,,,,,,,,,,,,,,,
INDIGO-ORG-0519,State of Michigan,,,,,US,Government body,,,,,,,,,,,
INDIGO-ORG-0520,W.K. Kellogg Foundation,,,,,,,,,,,,,,,,,
INDIGO-ORG-0521,Federal Human Services Administration,,,,,,,,,,,,,,,,,
INDIGO-ORG-0522,Michigan Health Endowment Fund,,,,,,,,,,,,,,,,,
INDIGO-ORG-0523,Higher School of Economics (HSE),,,,,,,,,,,,,,,,,
INDIGO-ORG-0525,State Development Corporation VEB.RF (ex-Vnesheconombank),,,,,RU,,,,,,,,,http://veb.ru/en,"Vozdvizhenka Street, 10",125009,"Moscow, Russian Federation"
INDIGO-ORG-0526,Ministry of Education and Science of the Republic of Sakha (Yakutia),,,,,RU,Government body,,,,,,,,,,,
INDIGO-ORG-0527,The Far East and Baikal Region Development Fund,,,,,,,,,,,,,,,,,
INDIGO-ORG-0528,The Osborne Association and Friends of Island Academy,,,,,,,,,,,,,,,,,
INDIGO-ORG-0529,The Vera Institute of Justice,,,,,,,,,,,,,,,,,
INDIGO-ORG-0530,MDRC (Manpower Demonstration Research Corporation),,,,,,,,,,,,,,https://www.mdrc.org,200 Vesey Street  23rd Floor,10281-2103,"NYC, NY, US"
INDIGO-ORG-0531,New York City Department of Correction,,,,,US,Government body,,,,,,,,,,,
INDIGO-ORG-0533,Children’s Investment Fund Foundation,,,,,GB,"Registered non-profit organisation, charity or foundation",,,,,,,,,,,
INDIGO-ORG-0534,UBS Optimus Foundation,,,,"The UBS Optimus Foundation pursues social impact in a variety of ways, from traditional charitable giving to sustainable investing. At the UBS Optimus Foundation we are specifically focused on social returns – in particular, social outcomes that benefit vulnerable children. We are the only foundation linked to a global wealth manager staffed with philanthropy experts. With an approach that takes advantage of our unique network, we’re taking a leading role in driving impactful philanthropy that delivers breakthrough solutions to pressing social issues.",CH,"Registered non-profit organisation, charity or foundation",,Sietse Wouters,,,sietse.wouters@ubs.com,,,http://www.ubs.com/optimus,,,CH
INDIGO-ORG-0535,Affinity Trust,,,,,,,,,,,,,,,,,
INDIGO-ORG-0536,Bradford District Council,,,,,GB,Government body,,,,,,,,,,,
INDIGO-ORG-0538,Social and Sustainable Capital (SASC),,,,,,,,,,,,,,,,,
INDIGO-ORG-0539,Rendiz,,,,,,,,,,,,,,,,,
INDIGO-ORG-0540,Instituut voor Positieve Gezondheid (Institute for Positive Health),,,,,,,,,,,,,,,,,
INDIGO-ORG-0541,Municipality of Venlo,,,,,NL,Government body,,,,,,,,,,,
INDIGO-ORG-0542,Rabobank Foundation,,,,,,,,,,,,,,,,,
INDIGO-ORG-0543,Municipality of Eindhoven,,,,,NL,Government body,,,,,,,,,,,
INDIGO-ORG-0545,"Various providers from private and non-profit sectors, focusing on employment and training services",,,,,,,,,,,,,,,,,
INDIGO-ORG-0546,Finnish Ministry of Economic Affairs and Employment,,,,,FI,Government body,,,,,,,,,,,
INDIGO-ORG-0547,European Investment Fund (EIF) / European Fund for Strategic Investments (EFSI),,,,,,,,,,,,,,,,,
INDIGO-ORG-0548,Others (including Sitra),,,,,,,,,,,,,,,,,
INDIGO-ORG-0549,Mother Teresa Middle School,,,,,,,,,,,,,,,,,
INDIGO-ORG-0550,Government of Sasketchewan,,,,,CA,Government body,,,,,,,,,,,
INDIGO-ORG-0551,The Mosaic Company Foundation,,,,,,,,,,,,,,,,,
INDIGO-ORG-0552,Surrey County Council,,,,,GB,Government body,,,,,,,,,,,
INDIGO-ORG-0553,Colorado Coalition for the Homeless,,,,,,,,,,,,,,,,,
INDIGO-ORG-0554,Mental Health Center for Denver,,,,,,,,,,,,,,,,,
INDIGO-ORG-0556,Corporation for Supportive Housing (project manager),,,,,,,,,,,,,,,,,
INDIGO-ORG-0557,Enterprise Community Partners,,,,,,,,,,,,,,,,,
INDIGO-ORG-0560,Colorado Access (managed care organization),,,,,,,,,,,,,,,,,
INDIGO-ORG-0561,"The City and County of Denver, Colorado",,,,,US,Government body,,,,,,,,,,,
INDIGO-ORG-0562,Living Cities Blended Catalyst Fund LLC,,,,,,,,,,,,,,,,,
INDIGO-ORG-0563,The Colorado Health Foundation,,,,,,,,,,,,,,,,,
INDIGO-ORG-0564,The Denver Foundation,,,,,,,,,,,,,,,,,
INDIGO-ORG-0565,The Ben and Lucy Ana Walton Fund of the Walton Family Foundation,,,,,,,,,,,,,,,,,
INDIGO-ORG-0566,The Northern Trust Company,,,,,,,,,,,,,,,,,
INDIGO-ORG-0567,The Benevolent Society,,,,,,,,,,,,,,,,,
INDIGO-ORG-0568,Westpac Institutional Bank,,,,,,,,,,,,,,,,,
INDIGO-ORG-0569,Commonwealth Bank of Australia,,,,,,,,,,,,,,,,,
INDIGO-ORG-0570,ARTD Consultants,,,,,,,,,,,,,,,,,
INDIGO-ORG-0571,Department of Family and Community Services NSW,,,,,AU,Government body,,,,,,,,,,,
INDIGO-ORG-0572,State of New South Wales Treasury,,,,,AU,Government body,,,,,,,,,,,
INDIGO-ORG-0575,Central and North West London NHS Foundation Trust,,,,,,,,,,,,,,,,,
INDIGO-ORG-0576,End of Life Care Incubator,,,,,,,,,,,,,,,,,
INDIGO-ORG-0578,Serco Group Plc. (operations and management),,,,,,,,,,,,,,,,,
INDIGO-ORG-0579,Fletcher Construction (design and construction),,,,,,,,,,,,,,,,,
INDIGO-ORG-0580,New Zealand Department of Corrections,,,,,NZ,Government body,,,,,,,,,,,
INDIGO-ORG-0581,SecureFuture Wiri Ltd. (SPV),,,,,,,,,,,,,,,,,
INDIGO-ORG-0582,John Laing Group PLC,,,,,,,,,,,,,,,,,
INDIGO-ORG-0583,InfraRed Capital Partners Limited,,,,,,,,,,,,,,,,,
INDIGO-ORG-0584,The Accident Compensation Corporation,,,,,,,,,,,,,,,,,
INDIGO-ORG-0585,Bank of New Zealand,,,,,,,,,,,,,,,,,
INDIGO-ORG-0586,Australia and New Zealand Banking Group Ltd,,,,,,,,,,,,,,,,,
INDIGO-ORG-0588,EGADZ Saskatoon Downtown Youth Center,,,,,,,,,,,,,,,,,
INDIGO-ORG-0589,Saskatchewan,,,,,,,,,,,,,,,,,
INDIGO-ORG-0590,Executive Council & Ministry of Social Serivces (intermediary),,,,,,,,,,,,,,,,,
INDIGO-ORG-0591,"Government of Sasketchewan (Ministries of Health, Education, and Social Services)",,,,,CA,Government body,,,,,,,,,,,
INDIGO-ORG-0593,Conexus Credit Union,,,,,,,,,,,,,,,,,
INDIGO-ORG-0594,Wally and Colleen Mah,,,,,,,,,,,,,,,,,
INDIGO-ORG-0595,Nottingham & Nottinghamshire Futures Ltd,,,,,,,,,,,,,,,,,
INDIGO-ORG-0596,Nottingham City Council,,,,,GB,Government body,,,,,,,,,,,
INDIGO-ORG-0597,Hindustan Latex Family Planning Promotion Trust (HLFPPT),,,,,IN,"Registered non-profit organisation, charity or foundation",,,,,,,,,,,
INDIGO-ORG-0598,Mathematica,,,,,,,,,,,,,,,,,
INDIGO-ORG-0599,Palladium,,,,,,,,,,,,,,,,,
INDIGO-ORG-0600,Reed Smith,,,,,,,,,,,,,,,,,
INDIGO-ORG-0601,Phoenix Legal,,,,,,,,,,,,,,,,,
INDIGO-ORG-0602,Merck for Mothers,,,,,US,"Registered company, partnership or commercial association",,,,,,,,,,,
INDIGO-ORG-0603,La Familia Counseling Services,,,,,,,,,,,,,,,,,
INDIGO-ORG-0604,WestEd,,,,,,,,,,,,,,,,,
INDIGO-ORG-0605,Government Performance Lab - Harvard Kennedy School,,,,,,,,,,,,,,,,,
INDIGO-ORG-0607,Nonprofit Finance Fund (transaction coordinator),,,,,,,,,,,,,,,,,
INDIGO-ORG-0608,BOSS (fiscal manager),,,,,,,,,,,,,,,,,
INDIGO-ORG-0609,Alameda County,,,,,US,Government body,,,,,,,,https://www.acgov.org,,,
INDIGO-ORG-0610,CA Board of State and Community Corrections,,,,,US,Government body,,,,,,,,,,,
INDIGO-ORG-0611,Social Innovation Fund,,,,,,,,,,,,,,,,,
INDIGO-ORG-0612,Life Without Barriers,,,,,,,,,,,,,,,,,
INDIGO-ORG-0613,National Australia Bank,,,,,,,,,,,,,,,,,
INDIGO-ORG-0614,Queensland Government,,,,,AU,Government body,,,,,,,,,,,
INDIGO-ORG-0615,Undisclosed,,,,,,,,,,,,,,,,,
INDIGO-ORG-0616,Chicago public elementary schools,,,,,,,,,,,,,,,,,
INDIGO-ORG-0617,SRI International (Stanford Research Institute),,,,,,,,,,,,,,https://www.sri.com,"333 Ravenswood Ave, Menlo Park",94025,"CA, US"
INDIGO-ORG-0618,IFF (Illinois Facilities Fund),,,,,,,,,,,,,,,,,
INDIGO-ORG-0619,Chicago Board of Education,,,,,US,Government body,,,,,,,,,,,
INDIGO-ORG-0620,City of Chicago,,,,,US,Government body,,,,,,,,,,,
INDIGO-ORG-0621,J.B. and M.K. Pritzker Family Foundation,,,,,,,,,,,,,,,,,
INDIGO-ORG-0622,Interface Children & Family Services,,,,,,,,,,,,,,,,,
INDIGO-ORG-0623,University of California Los Angeles (Dr. David Farabee),,,,,,,,,,,,,,,,,
INDIGO-ORG-0626,Wilmington Trust (fiscal agent),,,,,,,,,,,,,,,,,
INDIGO-ORG-0627,Ventura County,,,,,US,Government body,,,,,,,,,,,
INDIGO-ORG-0628,California Board of State and Community Corrections,,,,,,,,,,,,,,,,,
INDIGO-ORG-0629,The Whitney Museum of American Art,,,,,,,,,,,,,,,,,
INDIGO-ORG-0630,St. Giles Trust,,,,,,,,,,,,,,,,,
INDIGO-ORG-0631,Ormiston Children and Families Trust,,,,,,,,,,,,,,,,,
INDIGO-ORG-0633,SOVA (Supporting others through voluntary action),,,,,,,,,,,,,,,,,
INDIGO-ORG-0636,Friends Provident Foundation,,,,,,,,,,,,,,,,,
INDIGO-ORG-0637,The Henry Smith Charity,,,,,,,,,,,,,,,,,
INDIGO-ORG-0638,Johansson Family Foundation,,,,,,,,,,,,,,,,,
INDIGO-ORG-0639,The Monument Trust,,,,,,,,,,,,,,,,,
INDIGO-ORG-0640,Lankelly Chase Foundation,,,,,,,,,,,,,,,,,
INDIGO-ORG-0641,Panahpur Charitable Trust,,,,,,,,,,,,,,,,,
INDIGO-ORG-0642,Paul Hamlyn Foundation,,,,,,,,,,,,,,,,,
INDIGO-ORG-0643,Apprentis d'Auteuil,,,,,,,,,,,,,,,,,
INDIGO-ORG-0646,Action Inc.,,,,,,,,,,,,,,,,,
INDIGO-ORG-0647,Boston Public Health Commission,,,,,,,,,,,,,,,,,
INDIGO-ORG-0648,Commonwealth Land Trust Inc.,,,,,,,,,,,,,,,,,
INDIGO-ORG-0649,Eliot Human Services,,,,,,,,,,,,,,,,,
INDIGO-ORG-0650,Father Bill's & Mainspring,,,,,,,,,,,,,,,,,
INDIGO-ORG-0651,Friends of the Homeless,,,,,,,,,,,,,,,,,
INDIGO-ORG-0652,Heading Home Inc.,,,,,,,,,,,,,,,,,
INDIGO-ORG-0653,Hearth,,,,,,,,,,,,,,,,,
INDIGO-ORG-0654,HomeStart Inc.,,,,,,,,,,,,,,,,,
INDIGO-ORG-0655,Housing Assistance Corporation/Duffy Health Center,,,,,,,,,,,,,,,,,
INDIGO-ORG-0656,Lynn Shelter Association,,,,,,,,,,,,,,,,,
INDIGO-ORG-0657,Mental Health Associates,,,,,,,,,,,,,,,,,
INDIGO-ORG-0658,Pine Street Inn,,,,,,,,,,,,,,,,,
INDIGO-ORG-0659,South Middlesex Opportunity Council,,,,,,,,,,,,,,,,,
INDIGO-ORG-0660,Massachusetts Housing and Shelter Alliance (MHSA),,,,,,,,,,,,,,,,,
INDIGO-ORG-0661,United Way of Massachusetts Bay,,,,,,,,,,,,,,,,,
INDIGO-ORG-0662,Merrimack Valley (UWMB),,,,,,,,,,,,,,,,,
INDIGO-ORG-0663,Root Cause Institute,,,,,,,,,,,,,,,,,
INDIGO-ORG-0664,Massachusetts Alliance for Supportive Housing (MASH),,,,,,,,,,,,,,,,,
INDIGO-ORG-0665,United Way of Massachusetts Bay and Merrimack Valley,,,,,,,,,,,,,,,,,
INDIGO-ORG-0667,The Commonwealth of Massachusetts (Massachusetts MassHealth and Division of Public Housing and Rental Assistance),,,,,US,Government body,,,,,,,,,,,
INDIGO-ORG-0668,Santander Bank US,,,,,,,,,,,,,,,,,
INDIGO-ORG-0669,Douglas College,,,,,,,,,,,,,,,,,
INDIGO-ORG-0670,Saskatchewan Polytechnic,,,,,,,,,,,,,,,,,
INDIGO-ORG-0671,Confederation College,,,,,,,,,,,,,,,,,
INDIGO-ORG-0672,Colleges and Institutes Canada (CICan),,,,,,,,,,,,,,,,,
INDIGO-ORG-0673,Employment and Social Development Canada (ESDC),,,,,CA,Government body,,,,,,,,,,,
INDIGO-ORG-0674,The Catherine Donnelly Foundation,,,,,,,,,,,,,,,,,
INDIGO-ORG-0675,Dave and Pamela Richardson,,,,,,,,,,,,,,,,,
INDIGO-ORG-0676,Westbank Community Health and Care,,,,,,,,,,,,,,,,,
INDIGO-ORG-0677,Devon County Council,,,,,GB,Government body,,,,,,,,,,,
INDIGO-ORG-0678,Colorado Seminary - Center for Effective Interventions (University of Denver Graduate School of Social Work),,,,,,,,,,,,,,,,,
INDIGO-ORG-0679,local providers,,,,,,,,,,,,,,,,,
INDIGO-ORG-0680,Piton Foundation,,,,,,,,,,,,,,,,,
INDIGO-ORG-0681,Colorado Health Access Fund (Denver Foundation),,,,,,,,,,,,,,,,,
INDIGO-ORG-0682,"Work-Wise Direct Consortium (Foundation 180, Exodus Foundation and Restart)",,,,,,,,,,,,,,,,,
INDIGO-ORG-0684,Society Impact (Intermediary),,,,,,,,,,,,,,,,,
INDIGO-ORG-0685,Ministerie van Justitie en Veiligheid (NL Ministry of Security and Justice),,,,,NL,Government body,,,,,,,,,,,
INDIGO-ORG-0687,Oranje Fonds,,,,,,,,,,,,,,,,,
INDIGO-ORG-0688,Werkplaats Rotterdam-Zuid (WRZ or Workplace Rotterdam South),,,,,,,,,,,,,,,,,
INDIGO-ORG-0689,Fonds DBL,,,,,,,,,,,,,,,,,
INDIGO-ORG-0690,Polaris Community (previously known as Core Assets Group),,,,,GB,,,,,,,,,https://www.polarischildrensservices.co.uk/,,,
INDIGO-ORG-0691,Birmingham City Council,,,,,GB,Government body,,,,,,,,,,,
INDIGO-ORG-0692,Crisis,,,,,,,,,,,,,,,,,
INDIGO-ORG-0693,London Borough of Brent,,,,,GB,Government body,,,,,,,,,,,
INDIGO-ORG-0694,Hutt Street Centre,,,,,,,,,,,,,,,,,
INDIGO-ORG-0695,Government of South Australia,,,,,AU,Government body,,,,,,,,,,,
INDIGO-ORG-0696,"Institutional investors including NGS Super, Future Super and HESTA; local investors including Coopers Brewery Foundation",,,,,,,,,,,,,,,,,
INDIGO-ORG-0699,Urbis,,,,,,,,,,,,,,https://urbis.com.au,,,Australia
INDIGO-ORG-0701,"Newpin SBB Trust. The 59 investors include UnitingCare Burnside, high net worth individuals, family foundations and superannuation funds.",,,,,,,,,,,,,,,,,
INDIGO-ORG-0704,Orp Foundation,,,,,,,,,,,,,,,,,
INDIGO-ORG-0706,Oranjehuis,,,,,,,,,,,,,,,,,
INDIGO-ORG-0707,BNP Paribas Fortis,,,,,,,,,,,,,,,,,
INDIGO-ORG-0708,Curia,,,,,,,,,,,,,,,,,
INDIGO-ORG-0709,Opgroeien,,,,,BE,Government body,,,,,,,,,,,
INDIGO-ORG-0710,European Investment Fund,,,,,,,,,,,,,,,,,
INDIGO-ORG-0711,Boss Paints,,,,,,,,,,,,,,,,,
INDIGO-ORG-0712,BESIX Foundation,,,,,,,,,,,,,,,,,
INDIGO-ORG-0713,Mayday Trust,,,,,,,,,,,,,,,,,
INDIGO-ORG-0714,"First for Wellbeing CIC (Northamptonshire County Council, Northamptonshire Healthcare NHS Trust, University of Northampton)",,,,,GB,Government body,,,,,,,,,,,
INDIGO-ORG-0715,Rainforest Foundation UK,,,,,,,,,,,,,,,,,
INDIGO-ORG-0716,Central Asháninka del Río Ene (CARE),,,,,,,,,,,,,,,,,
INDIGO-ORG-0717,Kemito Ene Cocoa Co-operative,,,,,,,,,,,,,,,,,
INDIGO-ORG-0718,Other - Philanthropic contributions are included within the overall revenue of this project,,,,,GB,"Registered non-profit organisation, charity or foundation",,,,,,,,,,,
INDIGO-ORG-0719,KIT - The Royal Tropical Institute ,,,,,,,,,,,,,,,,,
INDIGO-ORG-0720,The Common Fund for Commodities,,,,,NL,"Multilateral, bilateral or intergovernmental body",,,,,,,,,,,
INDIGO-ORG-0721,The Schmidt Family Foundation,,,,,,,,,,,,,,,,,
INDIGO-ORG-0722,Social Impact Finance,,,,,,,,,,,,,,,,,
INDIGO-ORG-0723,IamNL,,,,,,,,,,,,,,,,,
INDIGO-ORG-0725,Municipality of Veldhoven,,,,,NL,Government body,,,,,,,,,,,
INDIGO-ORG-0726,"Van den Santheuve, Sobbe",,,,,,,,,,,,,,,,,
INDIGO-ORG-0727,[Anonymous],,,,,,,,,,,,,,,,,
INDIGO-ORG-0728,EOLC Incubator (SPV),,,,,,,,,,,,,,,,,
INDIGO-ORG-0729,Waltham Forest CCG,,,,,GB,Government body,,,,,,,,,,,
INDIGO-ORG-0730,Apeiros e.v.,,,,,,,,,,,,,,https://apeiros-ev.de/,,,
INDIGO-ORG-0731,Ausbildungsmanagement Augsburg / Eckert Schulen (training management Augsburg/ Eckert schools),,,,,,,,,,,,,,,,,
INDIGO-ORG-0732,Kinder -Jugend- und Familienhilfe Hochzoll (children youth and family welfare Hochzoll),,,,,,,,,,,,,,,,,
INDIGO-ORG-0735,Joblinge gAG München,,,,,,,,,,,,,,,,,
INDIGO-ORG-0736,The law firm Spiegel RA WP StB partnership mbB,,,,,,,,,,,,,,,,,
INDIGO-ORG-0737,München,,,,,,,,,,,,,,,,,
INDIGO-ORG-0739,University of Hamburg,,,,,,,,,,,,,,,,,
INDIGO-ORG-0740,"Bavarian State Ministry of Labor, Social Affairs and Integration",,,,,DE,Government body,,,,,,,,,,,
INDIGO-ORG-0741,BHF-Bank Stiftung (BHF-Bank-Foundation),,,,,,,,,,,,,,,,,
INDIGO-ORG-0742,Eberhard von Kuenheim Stiftung der BMW AG (Eberhard von Kuenheim Foundation of the BMW AG),,,,,,,,,,,,,,,,,
INDIGO-ORG-0743,BMW Stiftung Herbert Quandt (BMW Foundation Herbert Quandt),,,,,,,,,,,,,,,,,
INDIGO-ORG-0744,BonVenture gGmbH,,,,,,,,,,,,,,,,,
INDIGO-ORG-0747,Lincolnshire County Council,,,,,GB,Government body,,,,,,,,,,,
INDIGO-ORG-0748,City of Lincoln Council,,,,,GB,Government body,,,,,,,,,,,
INDIGO-ORG-0749,East Lindsey District Council,,,,,GB,Government body,,,,,,,,,,,
INDIGO-ORG-0750,South Holland District Council,,,,,GB,Government body,,,,,,,,,,,
INDIGO-ORG-0751,South Kesteven District Council,,,,,GB,Government body,,,,,,,,,,,
INDIGO-ORG-0752,Boston Borough Council,,,,,GB,Government body,,,,,,,,,,,
INDIGO-ORG-0753,North Kesteven District Council,,,,,GB,Government body,,,,,,,,,,,
INDIGO-ORG-0754,West Lindsey District Council,,,,,GB,Government body,,,,,,,,,,,
INDIGO-ORG-0755,Lincolnshire Partnership NHS Foundation Trust,,,,,GB,Government body,,,,,,,,,,,
INDIGO-ORG-0756,SKL Mental Health Commission and Health Navigator,,,,,,,,,,,,,,,,,
INDIGO-ORG-0757,Municipality of Norrköping,,,,,SE,Government body,,,,,,,,,,,
INDIGO-ORG-0758,Leksell Social Ventures,,,,,,,,,,,,,,,,,
INDIGO-ORG-0759,Heart and Stroke Foundation,,,,,,,,,,,,,,,,,
INDIGO-ORG-0760,MaRS Centre for Impact Investing,,,,"MaRS supports over 1,400 Canadian science and tech companies that are tackling some of society’s greatest challenges, providing them with tailored resources at every stage of their development, from startup to scale-up. MaRS focuses on four sectors — cleantech, health, fintech and enterprise software.",CA,"Registered company, partnership or commercial association",,Adam Jagelewski,,,ajagelewski@marsdd.com,,,https://www.marsdd.com,,,Canada
INDIGO-ORG-0761,Public Health Agency of Canada (PHAC),,,,,CA,Government body,,,,,,,,,,,
INDIGO-ORG-0762,Ian Cockwell and Andrew Cockwell,,,,,,,,,,,,,,,,,
INDIGO-ORG-0763,Guy M. Beaudin,,,,,,,,,,,,,,,,,
INDIGO-ORG-0764,Max Bell Foundation,,,,,,,,,,,,,,,,,
INDIGO-ORG-0765,Mindset Social Innovation Foundation,,,,,,,,,,,,,,,,,
INDIGO-ORG-0767,RBC Generator,,,,,,,,,,,,,,,,,
INDIGO-ORG-0768,TELUS Ventures,,,,,,,,,,,,,,,,,
INDIGO-ORG-0769,The J.W. McConnell Family Foundation,,,,,,,,,,,,,,,,,
INDIGO-ORG-0770,Brighton & Hove City Council,,,,,GB,Government body,,,,,,,,,,,
INDIGO-ORG-0771,Hastings Borough Council,,,,,GB,Government body,,,,,,,,,,,
INDIGO-ORG-0772,Eastbourne Borough Council,,,,,GB,Government body,,,,,,,,,,,
INDIGO-ORG-0773,Arun District Council,,,,,GB,Government body,,,,,,,,https://www.arun.gov.uk,,,
INDIGO-ORG-0774,Adur and Worthing Council,,,,,GB,Government body,,,,,,,,,,,
INDIGO-ORG-0776,k-three Inc,,,,,,,,,,,,,,,,,
INDIGO-ORG-0777,Hachioji City,,,,,JP,Government body,,,,,,,,,,,
INDIGO-ORG-0778,SIIF (Social Impact Investment Foundation),,,,,,,,,,,,,,,,,
INDIGO-ORG-0779,Digisearch and Advertising Inc.,,,,,,,,,,,,,,,,,
INDIGO-ORG-0780,"Consortium of Voluntary Adoption Agencies (Action for Children, Adoption Matters North West, After Adoption, Caritas Care, Family Futures, and Parents and Children Together)",,,,,,,,,,,,,,,,,
INDIGO-ORG-0786,It's All About Me Services,,,,,,,,,,,,,,,,,
INDIGO-ORG-0787,Any local authority,,,,,GB,Government body,,,,,,,,,,,
INDIGO-ORG-0788,Fusion Housing,,,,,,,,,,,,,,,,,
INDIGO-ORG-0789,Connect Housing,,,,,,,,,,,,,,,,,
INDIGO-ORG-0790,C&K Careers,,,,,,,,,,,,,,,,,
INDIGO-ORG-0791,Wakefield Rent Deposit Scheme,,,,,,,,,,,,,,,,,
INDIGO-ORG-0792,Pennine Housing,,,,,,,,,,,,,,,,,
INDIGO-ORG-0793,Fresh Horizon,,,,,,,,,,,,,,,,,
INDIGO-ORG-0794,The Riverside Group,,,,,,,,,,,,,,,,,
INDIGO-ORG-0795,SmartMove,,,,,,,,,,,,,,,,,
INDIGO-ORG-0797,Adviza,,,,,,,,,,,,,,,,,
INDIGO-ORG-0798,Berkshire Community Foundation,,,,,,,,,,,,,,,,,
INDIGO-ORG-0799,Bracknell Forest Homes,,,,,,,,,,,,,,,,,
INDIGO-ORG-0800,Buckinghamshire County Council,,,,,,,,,,,,,,,,,
INDIGO-ORG-0801,DPP Health Partners,,,,,,,,,,,,,,,,,
INDIGO-ORG-0802,Institute for Future Engineering,,,,,,,,,,,,,,,,,
INDIGO-ORG-0803,Kobe City,,,,,JP,Government body,,,,,,,,,,,
INDIGO-ORG-0804,Sumitomo Mitsui Banking Corporation,,,,,,,,,,,,,,,,,
INDIGO-ORG-0805,Making Space ,,,,,,,,,,,,,,,,,
INDIGO-ORG-0806,Twining (Haringey),,,,,,,,,,,,,,,,,
INDIGO-ORG-0807,Working Well Trust (Tower Hamlets),,,,,,,,,,,,,,,,,
INDIGO-ORG-0808,Staffordshire County Council,,,,,GB,Government body,,,,,,,,,,,
INDIGO-ORG-0809,Tower Hamlets Clinical Commissioning Group,,,,,GB,Government body,,,,,,,,,,,
INDIGO-ORG-0810,London Borough of Haringey,,,,,GB,Government body,,,,,,,,,,,
INDIGO-ORG-0811,ALLCHILD Limited (formerly 'West London Zone'),,,,,GB,"Registered non-profit organisation, charity or foundation",,,,,,,,https://www.allchild.org/,,,United Kingdom
INDIGO-ORG-0812,And Circus,,,,,,,,,,,,,,,,,
INDIGO-ORG-0813,Arch 197 Street Dance,,,,,,,,,,,,,,,,,
INDIGO-ORG-0814,Art Therapy,,,,,,,,,,,,,,,,,
INDIGO-ORG-0815,Be Enriched,,,,,,,,,,,,,,,,,
INDIGO-ORG-0816,Beanstalk Charity,,,,,,,,,,,,,,,,,
INDIGO-ORG-0817,Children's Literacy Charity,,,,,,,,,,,,,,,,,
INDIGO-ORG-0818,Choose to Live,,,,,,,,,,,,,,,,,
INDIGO-ORG-0819,Clement James Centre,,,,,,,,,,,,,,,,,
INDIGO-ORG-0820,Code Club (Link Worker),,,,,,,,,,,,,,,,,
INDIGO-ORG-0821,Creative Futures,,,,,,,,,,,,,,,,,
INDIGO-ORG-0822,Doorstep Library,,,,,,,,,,,,,,,,,
INDIGO-ORG-0823,Element,,,,,,,,,,,,,,,,,
INDIGO-ORG-0824,Fearless Futures,,,,,,,,,,,,,,,,,
INDIGO-ORG-0825,Fit-Age Parkour,,,,,,,,,,,,,,,,,
INDIGO-ORG-0826,Football Beyond Borders,,,,,,,,,,,,,,,,,
INDIGO-ORG-0827,Growth Mindset (Link Worker),,,,,,,,,,,,,,,,,
INDIGO-ORG-0828,Hammersmith Community Gardens Association Home-Start Westminster,,,,,,,,,,,,,,,,,
INDIGO-ORG-0829,Hackney Learning Trust,,,,,,,,,,,,,,,,,
INDIGO-ORG-0830,Let Me Play,,,,,,,,,,,,,,,,,
INDIGO-ORG-0831,London Sports Trust,,,,,,,,,,,,,,,,,
INDIGO-ORG-0832,Mathletics (Link Worker),,,,,,,,,,,,,,,,,
INDIGO-ORG-0833,Move LDN,,,,,,,,,,,,,,,,,
INDIGO-ORG-0835,Place2Be,,,,,,,,,,,,,,,,,
INDIGO-ORG-0836,ReACT drama therapy,,,,,,,,,,,,,,,,,
INDIGO-ORG-0837,Reading Wise (Link Worker),,,,,,,,,,,,,,,,,
INDIGO-ORG-0838,Real Action,,,,,,,,,,,,,,,,,
INDIGO-ORG-0839,Reclaimed,,,,,,,,,,,,,,,,,
INDIGO-ORG-0840,Rhythm Studio,,,,,,,,,,,,,,,,,
INDIGO-ORG-0841,Successful Failures,,,,,,,,,,,,,,,,,
INDIGO-ORG-0842,Team Up,,,,,,,,,,,,,,,,,
INDIGO-ORG-0843,Third Space (Link Worker),,,,,,,,,,,,,,,,,
INDIGO-ORG-0844,UrbanWise.London,,,,,,,,,,,,,,,,,
INDIGO-ORG-0845,West London Action for Children,,,,,,,,,,,,,,,,,
INDIGO-ORG-0846,Working With Men,,,,,,,,,,,,,,,,,
INDIGO-ORG-0847,Royal Borough of Kensington and Chelsea,,,,,GB,Government body,,,,,,,,,,,
INDIGO-ORG-0848,London Borough of Hammersmith and Fulham,,,,,GB,Government body,,,,,,,,,,,
INDIGO-ORG-0849,"Ark Burlington Danes Academy, Phonenix Academy and Art Swift Primary Academy",,,,,GB,"Registered non-profit organisation, charity or foundation",,,,,,,,,,,
INDIGO-ORG-0850,Philanthropic co-commissioner,,,,,GB,"Registered non-profit organisation, charity or foundation",,,,,,,,,,,
INDIGO-ORG-0851,Stepping Stones Fund (City Bridge Trust and UBS),,,,,,,,,,,,,,,,,
INDIGO-ORG-0852,Nurse-Family Partnership,,,,,,,,,,,,,,,,,
INDIGO-ORG-0853,J-PAL North America,,,,,US,,,,,,,,,https://www.povertyactionlab.org/na,,,
INDIGO-ORG-0856,Social Finance US,,,,"Social Finance US is a 501(c)(3) nonprofit organization dedicated to mobilizing capital to drive social progress. We believe that everyone deserves the opportunity to thrive, and that social impact financing can play a catalytic role in creating these opportunities. We design and manage public-private partnerships that tackle complex social challenges, such as achievement gaps, health disparities, and prisoner recidivism. Core to our work is the development of Pay for Success financing, also referred to as Social Impact Bonds. 

An innovative funding model, Pay for Success helps to measurably improve the lives of people in need by driving government resources toward better, more effective programs. Our sister organisation, Social Finance UK, was founded in 2007 and launched the world’s first Social Impact Bond in 2010. 

Social Finance (US) intermediated 8 SIBs in the US.",US,"Registered non-profit organisation, charity or foundation",,Annie Knickman Plancher,,,aplancher@socialfinance.org,,,https://socialfinance.org,Boston,,United States
INDIGO-ORG-0858,Children's Trust of South Carolina,,,,,,,,,,,,,,,,,
INDIGO-ORG-0859,South Carolina Department of Health and Human Services,,,,,US,Government body,,,,,,,,,,,
INDIGO-ORG-0860,BlueCross BlueShield of South Carolina Foundation,,,,,,,,,,,,,,,,,
INDIGO-ORG-0861,The Duke Endowment,,,,,,,,,,,,,,,,,
INDIGO-ORG-0862,The Boeing Company,,,,,,,,,,,,,,,,,
INDIGO-ORG-0863,"Greenville County, SC First Steps",,,,,,,,,,,,,,,,,
INDIGO-ORG-0864,Consortium of private funders,,,,,,,,,,,,,,,,,
INDIGO-ORG-0865,Local Solutions,,,,,,,,,,,,,,,,,
INDIGO-ORG-0866,Oakmere Training (At Inception but decommissioned end Year one),,,,,,,,,,,,,,,,,
INDIGO-ORG-0867,Ernst and Young (independently evaluate the results),,,,,,,,,,,,,,,,,
INDIGO-ORG-0868,Utrecht University,,,,,,,,,,,,,,,,,
INDIGO-ORG-0869,Municipality of Utrecht,,,,,NL,Government body,,,,,,,,,,,
INDIGO-ORG-0871,Jewish Vocational Service,,,,,,,,,,,,,,,,,
INDIGO-ORG-0872,Economic Mobility Corporation,,,,,,,,,,,,,,,,,
INDIGO-ORG-0873,Jobs for the Future (technical assistance),,,,,,,,,,,,,,,,,
INDIGO-ORG-0874,Bank of America Merrill Lynch,,,,,,,,,,,,,,,,,
INDIGO-ORG-0875,The Commonwealth of Massachusetts,,,,,US,Government body,,,,,,,,,,,
INDIGO-ORG-0877,"Prudential Financial, Inc.",,,,,,,,,,,,,,,,,
INDIGO-ORG-0878,Maycomb Capital (Community Outcomes Fund),,,,,,,,,,,,,,,,,
INDIGO-ORG-0879,Combined Jewish Philanthropies (Donor Advised Funds),,,,,,,,,,,,,,,,,
INDIGO-ORG-0880,The Barbara Bush Foundation for Family Literacy,,,,,,,,,,,,,,,,,
INDIGO-ORG-0881,The Boston Impact Initiative,,,,,,,,,,,,,,,,,
INDIGO-ORG-0882,ImpactAssets,,,,,,,,,,,,,,,,,
INDIGO-ORG-0883,The Inherent Foundation,,,,,,,,,,,,,,,,,
INDIGO-ORG-0884,The Kresge Foundation,,,,,,,,,,,,,,,,,
INDIGO-ORG-0885,The Shapiro Foundation,,,,,,,,,,,,,,,,,
INDIGO-ORG-0887,Blood Bank of Delmarva,,,,,,,,,,,,,,,,,
INDIGO-ORG-0888,New York Blood Center,,,,,,,,,,,,,,,,,
INDIGO-ORG-0890,Longwood Foundation,,,,,US,"Registered non-profit organisation, charity or foundation",,,,,,,,,,,
INDIGO-ORG-0891,Delaware Community Foundation Social Impact Fund,,,,,,,,,,,,,,,,,
INDIGO-ORG-0892,Kreishandwerkerschaft Steinfurt-Warendorf (Germany),,,,,,,,,,,,,,,,,
INDIGO-ORG-0893,Kennispunt Twente (Performance measurement),,,,,,,,,,,,,,,,,
INDIGO-ORG-0894,Municipality of Enschede,,,,,NL,Government body,,,,,,,,,,,
INDIGO-ORG-0895,BOAS Werkt,,,,,,,,,,,,,,,,,
INDIGO-ORG-0896,Centro de Assistencia Social a Terceira Idade e Infancia de Sanguedo (Sanguedo Social Assistance Centre for the Elderly and Children),,,,,,,,,,,,,,https://castiis.pt,"Rua do CASTIIS, 133",4505-582 ,Portugal
INDIGO-ORG-0898,"Administracao Central do Sistema de Saude (Healthcare System Central Administration, Portugal)",,,,,PT,Government body,,,,,,,,http://www.acss.min-saude.pt,"Parque de Saúde de Lisboa, Edifício 16, Av. do Brasil 53",1700-063,Portugal
INDIGO-ORG-0900,Jose de Mello Saude S.A.,,,,,,,,,,,,,,,,,
INDIGO-ORG-0901,Harambee Academy,,,,,,,,,,,,,,,,,
INDIGO-ORG-0902,Explore Data Science Academy,,,,,,,,,,,,,,,,,
INDIGO-ORG-0903,WeThinkCode,,,,,,,,,,,,,,,,,
INDIGO-ORG-0904,Harambee Youth Employment Accelerator,,,,,,,,,,,,,,,,,
INDIGO-ORG-0905,Bonds4Jobs,,,,,,,,,,,,,,,,,
INDIGO-ORG-0906,Gauteng Provincial Government,,,,,ZA,Government body,,,,,,,,,,,
INDIGO-ORG-0907,The National Treasury Jobs Fund,,,,,ZA,Government body,,,,,,,,,,,
INDIGO-ORG-0908,Yellowwood,,,,,ZA,"Registered company, partnership or commercial association",,,,,,,,http://www.ywood.co.za,,,
INDIGO-ORG-0909,Allan Gray Orbis Foundation Endowment,,,,,ZA,"Registered non-profit organisation, charity or foundation",,,,,,,,https://www.allangrayorbisend.org/#allan-gray-orbis-foundation,,,
INDIGO-ORG-0910,First Rand Empowerment Foundation,,,,,ZA,"Registered non-profit organisation, charity or foundation",,,,,,,,,,,
INDIGO-ORG-0911,The Hollard Insurance Company Limited,,,,,,,,,,,,,,,,,
INDIGO-ORG-0913,Brimstone Legacy Fund in partnership with Nedbank & Old Mutual,,,,,,,,,,,,,,,,,
INDIGO-ORG-0914,Clientele Limited,,,,,,,,,,,,,,,,,
INDIGO-ORG-0915,Oppenheimer Generations Foundation Limited,,,,,,,,,,,,,,,,,
INDIGO-ORG-0916,Sacred Heart Mission Inc.,,,,,AU,"Registered non-profit organisation, charity or foundation",,,,,,,,,,,
INDIGO-ORG-0917,Latitude Network,,,,,,,,,,,,,,,,,
INDIGO-ORG-0919,The Centre for Social Impact at the University of Western Australia,,,,,,,,,,,,,,,,,
INDIGO-ORG-0920,Victoria State Government,,,,,AU,Government body,,,,,,,,,,,
INDIGO-ORG-0922,Centre4,,,,,,,,,,,,,,,,,
INDIGO-ORG-0924,Oasis Aquila Housing,,,,,,,,,,,,,,,,,
INDIGO-ORG-0925,Newcastle City Council,,,,,GB,Government body,,,,,,,,,,,
INDIGO-ORG-0926,Gateshead Council,,,,,GB,Government body,,,,,,,,,,,
INDIGO-ORG-0927,Family & Children's Services,,,,,,,,,,,,,,,,,
INDIGO-ORG-0928,State of Oklahoma Office of Management and Enterprise Services,,,,,US,Government body,,,,,,,,,,,
INDIGO-ORG-0929,The George Kaiser Family Foundation,,,,,,,,,,,,,,,,,
INDIGO-ORG-0930,Code for All Lda. ,,,,,,,,,,,,,,,,,
INDIGO-ORG-0932,Instituto do Emprego e Formação Profissional (Institute of Employment and Vocational Training),,,,,,,,,,,,,,,,,
INDIGO-ORG-0933,ASSOP - Associação Shared Services & Outsourcing Platform,,,,,,,,,,,,,,,,,
INDIGO-ORG-0934,Churches of Christ in Queensland,,,,,,,,,,,,,,,,,
INDIGO-ORG-0935,Social Outcomes,,,,,,,,,,,,,,,,,
INDIGO-ORG-0937,Center for Employment Opportunities,,,,,,,,,,,,,,,,,
INDIGO-ORG-0938,Department of Corrections and Community Supervision,,,,,,,,,,,,,,,,,
INDIGO-ORG-0939,Department of Labor,,,,,,,,,,,,,,,,,
INDIGO-ORG-0940,Chesapeake Research Associates,,,,,,,,,,,,,,,,,
INDIGO-ORG-0942,Harvard Kennedy School of Government,,,,,,,,,,,,,,,,,
INDIGO-ORG-0943,Jones Day (legal counsel),,,,,,,,,,,,,,,,,
INDIGO-ORG-0944,New York State Department of Labor,,,,,US,Government body,,,,,,,,,,,
INDIGO-ORG-0945,Rockefeller Foundation,,,,,,,,,,,,,,,,,
INDIGO-ORG-0946,Robin Hood Foundation,,,,,,,,,,,,,,,,,
INDIGO-ORG-0947,FrontLine Service,,,,,,,,,,,,,,,,,
INDIGO-ORG-0948,The Center on Urban Poverty and Community Development at the Jack Joseph and Morton Mandel School of Applied Social Sciences at Case Western Reserve University,,,,,,,,,,,,,,,,,
INDIGO-ORG-0950,The Cuyahoga Metropolitan Housing Authority,,,,,,,,,,,,,,,,,
INDIGO-ORG-0951,Emerald Development and Economic Network,,,,,,,,,,,,,,,,,
INDIGO-ORG-0952,Famicos Foundation (housing providers),,,,,,,,,,,,,,,,,
INDIGO-ORG-0953,County's Office of Homelessness,,,,,,,,,,,,,,,,,
INDIGO-ORG-0954,The Domestic Violence & Child Advocacy Center,,,,,,,,,,,,,,,,,
INDIGO-ORG-0955,County's Division of Children and Family Services (referral partners),,,,,,,,,,,,,,,,,
INDIGO-ORG-0958,"County of Cuyahoga, Ohio",,,,,,,,,,,,,,,,,
INDIGO-ORG-0959,The George Gund Foundation,,,,,,,,,,,,,,,,,
INDIGO-ORG-0960,The Cleveland Foundation,,,,,,,,,,,,,,,,,
INDIGO-ORG-0961,Sisters of Charity Foundation of Cleveland,,,,,,,,,,,,,,,,,
INDIGO-ORG-0962,ARBIAS (Alcohol Related Brain Injury Association),,,,,,,,,,,,,,https://www.arbias.org.au,,,Australia
INDIGO-ORG-0963,NSW Bureau of Crime Statistics and Research (Evaluator),,,,,,,,,,,,,,,,,
INDIGO-ORG-0964,Corrective Services New South Wales,,,,,AU,Government body,,,,,,,,,,,
INDIGO-ORG-0966,ACSO (Australian Community Support Organisation),,,,,,,,,,,,,,,,,
INDIGO-ORG-0970,Aluma Association,,,,,,,,,,,,,,,,,
INDIGO-ORG-0971,Tel Aviv-Jaffa Academic College,,,,,IL,"Registered non-profit organisation, charity or foundation",,,,,,,,,,,
INDIGO-ORG-0972,Haifa University,,,,,IL,"Registered company, partnership or commercial association",,,,,,,,,,,
INDIGO-ORG-0973,Rothschild-Caesarea Foundation,,,,,,,,,,,,,,,,,
INDIGO-ORG-0974,Bank Leumi,,,,,,,,,,,,,,,,,
INDIGO-ORG-0975,Beyond Impact Investment Company,,,,,,,,,,,,,,,,,
INDIGO-ORG-0976,EPIC STUDENT- Associacao,,,,,,,,,,,,,,,,,
INDIGO-ORG-0978,Banco Santander Totta S.A,,,,,,,,,,,,,,,,,
INDIGO-ORG-0979,Village Enterprise,,,,Village Enterprise is a non-profit dedicated to ending extreme poverty in rural Africa through entrepreneurship and innovation.,US,"Registered non-profit organisation, charity or foundation",,Celeste Brubaker,,,celesteb@villageenterprise.org,,,http://villageenterprise.org,,,US
INDIGO-ORG-0982,IDInsight,,,,"IDinsight was the evaluator on the first DIB in Asia, the Educate Girls DIB and the first DIB in Africa, the Village Enterprise DIB. They are design partners on the first project (in Ghana) of the Education Outcomes Fund for Africa and the Middle East, in addition to other projects.",US,"Registered company, partnership or commercial association",,Kate Sturla,,,kate.sturla@idinsight.org,,,https://www.idinsight.org/,,,United States
INDIGO-ORG-0983,Anonymous philanthropic fund based in USA,,,,,US,"Registered non-profit organisation, charity or foundation",,,,,,,,,,,
INDIGO-ORG-0985,"FCDO - Foreign, Commonwealth and Development Office (formerly DFID)",,,,,GB,Government body,,,,,,,,,,,
INDIGO-ORG-0986,Delta Fund,,,,,,,,,,,,,,,,,
INDIGO-ORG-0987,The Halls Family,,,,,,,,,,,,,,,,,
INDIGO-ORG-0988,"ImpactAssets (gathering 3 private investors, including Silicon Valley Social Venture Fund (SV2))",,,,,,,,,,,,,,,,,
INDIGO-ORG-0989,Jay Friedrich,,,,,,,,,,,,,,,,,
INDIGO-ORG-0990,The Laidir Foundation (previously known as Brian Lonergan),,,,,,,,,,,,,,,,,
INDIGO-ORG-0992,Anonymous Philanthropy,,,,,,,,,,,,,,,,,
INDIGO-ORG-0995,Impetus-PEF,,,,,,,,,,,,,,,,,
INDIGO-ORG-0996,TESE - Associação para o desenvolvimento pela Tecnologia (Technology Development Association),,,,,,,,,,,,,,https://tese.org.pt,"Avenida do Brasil, 155 A",1700-067,Portugal
INDIGO-ORG-0997,Engenharia,,,,,,,,,,,,,,,,,
INDIGO-ORG-0998,Saúde e Educação,,,,,,,,,,,,,,,,,
INDIGO-ORG-0999,Laboratório de Inovação Social,,,,,,,,,,,,,,,,,
INDIGO-ORG-1000,Monitoring / Operational Partners: Instituto do Emprego e Formação Profissional (Institute of Employment and Vocational Training),,,,,,,,,,,,,,,,,
INDIGO-ORG-1002,Pestalozzischule Mannheim (Pestalozzi School Mannheim),,,,,,,,,,,,,,,,,
INDIGO-ORG-1003,Stiftung Fairchance (Fairchance Foundation),,,,,,,,,,,,,,,,,
INDIGO-ORG-1004,Zentrum zur Therapie der Rechenschwäche (Therapy Centre for Dyscalculia),,,,,DE,,,,,,,,,,,,
INDIGO-ORG-1005,Teach First Germany gGmbH,,,,,,,,,,,,,,,,,
INDIGO-ORG-1006,KinderHelden gGmbH,,,,,,,,,,,,,,,,,
INDIGO-ORG-1007,Stadt Mannheim (commissioner) and evaluation commissioned by Bertelsmann Stiftung,,,,,,,,,,,,,,,,,
INDIGO-ORG-1008,PHINEO gAG,,,,,,,,,,,,,,,,,
INDIGO-ORG-1009,Stadt Mannheim (City of Mannheim),,,,,DE,Government body,,,,,,,,,,,
INDIGO-ORG-1010,BASF SE,,,,,,,,,,,,,,,,,
INDIGO-ORG-1011,Tomorrow's People,,,,,,,,,,,,,,,,,
INDIGO-ORG-1012,Sociaal Hospitaal (Social Hospital),,,,,,,,,,,,,,,,,
INDIGO-ORG-1013,PGGM,,,,,NL,,,,,,,,,https://www.pggm.nl/en/,,,
INDIGO-ORG-1014,Municipality of The Hague,,,,,NL,Government body,,,,,,,,,,,
INDIGO-ORG-1015,CZ [Healthcare Insurance Company],,,,,,,,,,,,,,,,,
INDIGO-ORG-1016,NOVA School of Business and Economics,,,,,PT,,,,,,,,,,,,
INDIGO-ORG-1017,Lisbon City Council,,,,,PT,Government body,,,,,,,,,,,
INDIGO-ORG-1018,Fundacion Crecer con Todos,,,,,,,,,,,,,,,,,
INDIGO-ORG-1019,Fundacion San Carlos de Maipo,,,,,,,,,,,,,,,,,
INDIGO-ORG-1020,Doble Impacto,,,,,,,,,,,,,,,,,
INDIGO-ORG-1021,Fundacion Larrain Vial,,,,,CL,"Registered non-profit organisation, charity or foundation",,,,,,,,,,,
INDIGO-ORG-1022,Fundacion Viento Sur,,,,,CL,"Registered non-profit organisation, charity or foundation",,,,,,,,,,,
INDIGO-ORG-1023,Fundacion Colunga,,,,,CL,"Registered non-profit organisation, charity or foundation",,,,,,,,,,,
INDIGO-ORG-1024,Fundacion Mustakis,,,,,CL,"Registered non-profit organisation, charity or foundation",,,,,,,,,,,
INDIGO-ORG-1025,A.P.E.I (Associacao de Profissionais de Educacao de Infancia),,,,,,,,,,,,,,,,,
INDIGO-ORG-1026,Associacao Laboratorio de Investimento Social,,,,,,,,,,,,,,,,,
INDIGO-ORG-1027,Fundacao Aga Khan Portugal,,Aga Khan Foundation - Portugal,PT,"The Aga Khan Development Network has a great deal of experience with blended finance and outcome-based financing. Aga Khan Foundation (AKF) implemented an impact bond in Portugal focused on ""family literacy."" AKF Portugal was the social investor, the National Early Childhood Professionals Association was the implementing partner and the Ministry of Education the public partner; together with a research partner ISPA (Institute of Applied Psychology) and the outcome-analysis partner MAZE (Social Investment Lab). The main goal of the project was to improve literacy skills in writing and reading together with family literacy practises contributing to lower retention rates in basic education and promote school success.",PT,"Registered non-profit organisation, charity or foundation",,Matt Reed,,,matt.reed@akdn.org,,,https://the.akdn/en/home,,,Portugal
INDIGO-ORG-1028,Los Angeles County Department of Health Services Intense Case Management Providers,,,,,,,,,,,,,,,,,
INDIGO-ORG-1029,Brilliant Corners,,,,,,,,,,,,,,,,,
INDIGO-ORG-1030,RAND Corporation,,,,,,,,,,,,,,,,,
INDIGO-ORG-1031,National Council on Crime & Delinquency (intermediary),,,,,,,,,,,,,,,,,
INDIGO-ORG-1032,Corporation for Supportive Housing (transaction coordinator),,,,,,,,,,,,,,,,,
INDIGO-ORG-1034,Los Angeles County,,,,,US,Government body,,,,,,,,,,,
INDIGO-ORG-1035,US Department of Housing & Urban Development,,,,,US,Government body,,,,,,,,,,,
INDIGO-ORG-1036,UnitedHealthcare,,,,,,,,,,,,,,,,,
INDIGO-ORG-1037,The Conrad N. Hilton Foundation,,,,,,,,,,,,,,,,,
INDIGO-ORG-1038,CCP,,,,,,,,,,,,,,,,,
INDIGO-ORG-1039,Individual investors through SITR,,,,,,,,,,,,,,,,,
INDIGO-ORG-1040,The Colour Kitchen,,,,,,,,,,,,,,,,,
INDIGO-ORG-1042,Pimbaa (evaluative research),,,,,,,,,,,,,,,,,
INDIGO-ORG-1043,Kuepa,,,,,,,,,,,,,,,,,
INDIGO-ORG-1044,Fundación Colombia Incluyente,,,,,,,,,,,,,,,,,
INDIGO-ORG-1045,Corporación Volver a la gente,,,,,,,,,,,,,,,,,
INDIGO-ORG-1048,Fundación ProBono,,,,,,,,,,,,,,,,,
INDIGO-ORG-1049,Baker McKenzie,,,,,,,,,,,,,,,,,
INDIGO-ORG-1051,Compartamos con Colombia,,,,,,,,,,,,,,,,,
INDIGO-ORG-1052,Departamento de Prosperidad Social (Government of Colombia Department of Social Prosperity),,,,,CO,Government body,,,,,,,,,,,
INDIGO-ORG-1058,St Basil's,,,,,,,,,,,,,,,,,
INDIGO-ORG-1060,We Are With You (formerly called Addaction),,,,,,,,,,,,,,,,,
INDIGO-ORG-1061,Cornwall County Council,,,,,GB,Government body,,,,,,,,,,,
INDIGO-ORG-1062,Doncaster Metropolitan Borough Council,,,,,GB,Government body,,,,,,,,,,,
INDIGO-ORG-1063,Big Picture Learning Doncaster,,,,,,,,,,,,,,,,,
INDIGO-ORG-1064,ThinkForward,,,,,,,,,,,,,,,,,
INDIGO-ORG-1065,DFN Foundation,,,,,GB,"Registered non-profit organisation, charity or foundation",,,,,,,,,,,
INDIGO-ORG-1066,Alzheimer's Society,,,,,,,,,,,,,,,,,
INDIGO-ORG-1067,Hestia Housing and Support,,,,,,,,,,,,,,,,,
INDIGO-ORG-1068,Harlington Hospice,,,,,,,,,,,,,,,,,
INDIGO-ORG-1069,Hounslow and Richmond Community Healthcare NHS Trust,,,,,,,,,,,,,,,,,
INDIGO-ORG-1070,London Borough of Hounslow,,,,,GB,Government body,,,,,,,,,,,
INDIGO-ORG-1071,Cheshire West and Chester Council,,,,,GB,Government body,,,,,,,,,,,
INDIGO-ORG-1072,"Futures Advice, Skills and Employment Ltd",,,,,,,,,,,,,,,,,
INDIGO-ORG-1073,Nottingham County Council,,,,,GB,Government body,,,,,,,,,,,
INDIGO-ORG-1074,Humankind,,,,,,,,,,,,,,,,,
INDIGO-ORG-1075,Addiction Dependency Solutions (ADS),,,,,,,,,,,,,,,,,
INDIGO-ORG-1076,Family Lives,,,,,,,,,,,,,,,,,
INDIGO-ORG-1077,Ecorys,,,,"Ecorys is an international consultancy providing research, consulting and management services. Ecorys is one of the world leaders in impact bond research, and is currently evaluating 42 impact bonds, including four development impact bonds. This work focuses on both evaluating the impact of the programme and on the 'impact bond effect' - i.e. how the impact bond affects the design, delivery and impact of the intervention",GB,"Registered company, partnership or commercial association",,James Ronicle,,,james.Ronicle@ecorys.com,,,http://ecorys.com,,,GB
INDIGO-ORG-1078,ATQ,,,,,,,,,,,,,,,,,
INDIGO-ORG-1079,Kirklees Better Outcomes Partnership,,,,,,,,,,,,,,,,,
INDIGO-ORG-1080,Richmond Fellowship,,,,,,,,,,,,,,,,,
INDIGO-ORG-1081,Foundation UK,,,,,,,,,,,,,,,,,
INDIGO-ORG-1082,Horton Housing Association,,,,,,,,,,,,,,,,,
INDIGO-ORG-1083,Kirklees Metropolitan Borough Council,,,,,GB,Government body,,,,,,,,,,,
INDIGO-ORG-1084,Twinings,,,,,,,,,,,,,,,,,
INDIGO-ORG-1085,Ripplez CIC,,,,,,,,,,,,,,,,,
INDIGO-ORG-1086,Pause National,,,,,,,,,,,,,,,,,
INDIGO-ORG-1087,Derbyshire County Council,,,,,GB,Government body,,,,,,,,,,,
INDIGO-ORG-1088,Northamptonshire County Council,,,,,GB,Government body,,,,,,,,,,,
INDIGO-ORG-1089,Norfolk County Council,,,,,GB,Government body,,,,,,,,,,,
INDIGO-ORG-1090,Cromwood Housing,,,,,,,,,,,,,,,,,
INDIGO-ORG-1091,Kineara,,,,,,,,,,,,,,,,,
INDIGO-ORG-1092,Trevi House,,,,,,,,,,,,,,,,,
INDIGO-ORG-1093,Plymouth City Council,,,,,GB,Government body,,,,,,,,,,,
INDIGO-ORG-1094,South Yorkshire Housing,,,,,,,,,,,,,,,,,
INDIGO-ORG-1095,Single Homelessness Project,,,,,,,,,,,,,,,,,
INDIGO-ORG-1098,London Borough of Islington,,,,,GB,Government body,,,,,,,,,,,
INDIGO-ORG-1099,London Borough of Ealing,,,,,GB,Government body,,,,,,,,,,,
INDIGO-ORG-1100,Enfield Council,,,,,GB,Government body,,,,,,,,,,,
INDIGO-ORG-1101,Hackney Council,,,,,GB,Government body,,,,,,,,,,,
INDIGO-ORG-1102,Suffolk County Council,,,,,GB,Government body,,,,,,,,,,,
INDIGO-ORG-1103,Westminster City Council,,,,,GB,Government body,,,,,,,,,,,
INDIGO-ORG-1104,Westminster Drug Project,,,,,,,,,,,,,,,,,
INDIGO-ORG-1105,London Borough of Harrow,,,,,GB,Government body,,,,,,,,,,,
INDIGO-ORG-1106,West London Job Centre Plus,,,,,GB,Government body,,,,,,,,,,,
INDIGO-ORG-1107,London Borough of Hillingdon,,,,,GB,Government body,,,,,,,,,,,
INDIGO-ORG-1108,West London CCG,,,,,GB,Government body,,,,,,,,,,,
INDIGO-ORG-1109,Barnet Job Centre Plus,,,,,GB,Government body,,,,,,,,,,,
INDIGO-ORG-1110,London Borough of Westminster,,,,,GB,Government body,,,,,,,,,,,
INDIGO-ORG-1111,Central London CCG,,,,,GB,Government body,,,,,,,,,,,
INDIGO-ORG-1112,Ealing CCG,,,,,GB,Government body,,,,,,,,,,,
INDIGO-ORG-1113,Brent Clinical Commissioning Group,,,,,GB,Government body,,,,,,,,,,,
INDIGO-ORG-1114,Bi-borough of Westminster and Royal Borough of Kensington and Chelsea,,,,,GB,Government body,,,,,,,,,,,
INDIGO-ORG-1115,Waltham Forest Council,,,,,GB,Government body,,,,,,,,,,,
INDIGO-ORG-1116,The Skill Mill,,,,,,,,,,,,,,,,,
INDIGO-ORG-1117,Birmingham Children's Trust,,,,,GB,Government body,,,,,,,,,,,
INDIGO-ORG-1118,Durham City Council,,,,,GB,Government body,,,,,,,,,,,
INDIGO-ORG-1119,Leeds City Council,,,,,GB,Government body,,,,,,,,,,,
INDIGO-ORG-1120,Rochdale Borough Council,,,,,GB,Government body,,,,,,,,,,,
INDIGO-ORG-1122,Département de Loire Atlantique (local authority),,,,,,,,,,,,,,,,,
INDIGO-ORG-1123,Département de Gironde (local authority) - France,,,,,FR,Government body,,,,,,,,,,,
INDIGO-ORG-1124,Tiko (formerly Triggerise),,,,,,,,,,,,,,https://triggerise.org/,,,
INDIGO-ORG-1125,ANAH - Agence Nationale pour l'Amélioration de l'Habitat,,National Housing Agency,FR,,FR,Government body,,,,,,,,https://www.anah.fr,,,
INDIGO-ORG-1126,Secours Catholique,,,,,,,,,,,,,,,,,
INDIGO-ORG-1127,Favart,,,,,,,,,,,,,,,,,
INDIGO-ORG-1128,Reseau Ecohabitat,,,,,,,,,,,,,,,,,
INDIGO-ORG-1129,Melbourne City Mission,,,,,,,,,,,,,,https://www.mcm.org.au/,"164-180 Kings Way, South Melbourne, Victoria 3205",,Australia
INDIGO-ORG-1130,Sefa (Social Enterprise Finance Australia),,,,,,,,,,,,,,https://www.sefa.com.au/,"1—3 Smail Street, Ultimo NSW 2007",,Australia
INDIGO-ORG-1132,Flying Futures,,,,,,,,,,,,,,https://flyingfutures.org/,,LS22 5HG,United Kingdom
INDIGO-ORG-1133,Positive Youth Foundation,,,,,,,,,,,,,,https://positiveyouthfoundation.org/,"Coventry College, 50 Swanswell Street",CV1 5DG,United Kingdom
INDIGO-ORG-1134,Charlton Athletic Community Trust,,,,,,,,,,,,,,https://cact.org.uk/,"Charlton Athletic Training Ground Sparrows Lane, New Eltham London ",SE9 2JR,United Kingdom
INDIGO-ORG-1135,Leyton Orient Community Trust,,,,,,,,,,,,,,https://www.leytonorienttrust.org.uk/,"100 Oliver Road, Leyton",E10 5JY,United Kingdom
INDIGO-ORG-1136,Aston Villa Community Trust,,,,,,,,,,,,,,,,,
INDIGO-ORG-1137,Brentford FC Community Sports Trust,,,,,,,,,,,,,,,,,
INDIGO-ORG-1138,Foundation of Light Sunderland,,,,,,,,,,,,,,,,,
INDIGO-ORG-1139,Youth Moves,,,,,,,,,,,,,,https://www.youthmoves.org.uk/,"The Park Centre, Bristol
",BS4 1DQ,United Kingdom
INDIGO-ORG-1140,Wigan Athletic Community Trust,,,,,,,,,,,,,,,,,
INDIGO-ORG-1141,QPR Community Trust,,,,,,,,,,,,,,,,,
INDIGO-ORG-1142,Exeter City Community Trust,,,,,,,,,,,,,,,,,
INDIGO-ORG-1143,Energise STW,,,,,,,,,,,,,,,,,
INDIGO-ORG-1144,Palace for Life Foundation,,,,,,,,,,,,,,,,,
INDIGO-ORG-1145,Active Oxfordshire,,,,,,,,,,,,,,,,,
INDIGO-ORG-1146,Coventry City Council,,,,,GB,Government body,,,,,,,,,,,
INDIGO-ORG-1147,Wigan Metropolitan Borough Council,,,,,GB,Government body,,,,,,,,https://www.wigan.gov.uk/index.aspx,,,
INDIGO-ORG-1148,Shropshire County Council,,,,,GB,Government body,,,,,,,,https://www.shropshire.gov.uk/,,,
INDIGO-ORG-1149,Sunderland City Council,,,,,GB,Government body,,,,,,,,,,,
INDIGO-ORG-1150,Sport England,,,,,GB,Government body,,,,,,,,,,,
INDIGO-ORG-1152,Derby City Council,,,,,GB,Government body,,,,,,,,,,,
INDIGO-ORG-1153,Enable (Employment Services),,,,,,,,,,,,,,,,,
INDIGO-ORG-1154,The Tower Project,,,,,,,,,,,,,,,,,
INDIGO-ORG-1156,National Fostering Agency,,,,,,,,,,,,,,,,,
INDIGO-ORG-1157,Telford & Wrekin Council,,,,,GB,Government body,,,,,,,,,,,
INDIGO-ORG-1158,City of Wolverhampton Council,,,,,GB,Government body,,,,,,,,,,,
INDIGO-ORG-1159,Dudley Council,,,,,GB,Government body,,,,,,,,,,,
INDIGO-ORG-1160,CAT Consultants,,,,,,,,,,,,,,,,,
INDIGO-ORG-1161,SOS Children's Village,,,,,,,,,,,,,,https://www.sos-childrensvillages.org/organisation,,,
INDIGO-ORG-1162,Icehearts,,,,,,,,,,,,,,https://www.icehearts.fi/brief-in-english/,,,Finland
INDIGO-ORG-1163,Municipality of Helsinki,,,,,FI,Government body,,,,,,,,,,,
INDIGO-ORG-1164,Municipality of Hämeenlinna,,,,,FI,Government body,,,,,,,,,,,
INDIGO-ORG-1165,Municipality of Kemiönsaari,,,,,FI,Government body,,,,,,,,,,,
INDIGO-ORG-1166,Municipality of Lohja,,,,,FI,Government body,,,,,,,,,,,
INDIGO-ORG-1167,Municipality of Vantaa,,,,,FI,Government body,,,,,,,,,,,
INDIGO-ORG-1168,S Group,,,,,,,,,,,,,,https://s-ryhma.fi/en,,,Finland
INDIGO-ORG-1169,LähiTapiola,,,,,,,,,,,,,,https://www.lahitapiola.fi/henkilo,,,Finland
INDIGO-ORG-1170,The City of Espoo,,,,,,,,,,,,,,https://www.espoo.fi/en-US,,,Finland
INDIGO-ORG-1171,Samfundet Folkhälsan,,,,,,,,,,,,,,,,,Finland
INDIGO-ORG-1172,Tradeka,,,,,,,,,,,,,,,,,
INDIGO-ORG-1173,FIM Asset Management Ltd,,,,,,,,,,,,,,,,,
INDIGO-ORG-1174,Central Union for Child Welfare,,,,,,,,,,,,,,https://www.lskl.fi/english/,,,Finland
INDIGO-ORG-1175,Dasomi Foundation,,,,,,,,,,,,,,,,,
INDIGO-ORG-1176,Sustainability Management Foundation,,,,,,,,,,,,,,,,,
INDIGO-ORG-1177,Gyeonggi-do Province,,,,,KR,Government body,,,,,,,,,,,
INDIGO-ORG-1178,Naelio Social Cooperative,,,,,,,,,,,,,,,,,
INDIGO-ORG-1179,Korea Social Innovation Finance Co.,,,,,,,,,,,,,,,,,
INDIGO-ORG-1180,Korea Institute for Industrial Relations,,,,,,,,,,,,,,,,,
INDIGO-ORG-1181,Zayed Higher Organisation for People of Determination (ZHO),,,,,AE,,,,,,,,,,,,
INDIGO-ORG-1182,Fonciere Chenelet (SCI),,,,,,,,,,,,,,,,,
INDIGO-ORG-1183,Fonciere Chenelet (SAS),,,,,,,,,,,,,,,,,
INDIGO-ORG-1184,Voluntary Norfolk,,,,,,,,,,,,,,,,,
INDIGO-ORG-1186,Norfolk & Suffolk Care Support,,,,,,,,,,,,,,,,,
INDIGO-ORG-1187,Carers Voice,,,,,,,,,,,,,,,,,
INDIGO-ORG-1188,Caring Together,,,,,,,,,,,,,,,,,
INDIGO-ORG-1189,Deaconess Foundation,,,,,,,,,,,,,,https://www.hdl.fi/en/,,,Finland
INDIGO-ORG-1190,Nuorten Ystävät,,,,,,,,,,,,,,https://www.nuortenystavat.fi,,,Finland
INDIGO-ORG-1191,Government of the City of Jyväskylä,,,,,FI,Government body,,,,,,,,,,,
INDIGO-ORG-1192,Government of the City of Tampere,,,,,FI,Government body,,,,,,,,,,,
INDIGO-ORG-1193,Karviainen (joint municipal authority of the cities of Karkkila and Vihti),,,,,FI,Government body,,,,,,,,,,,
INDIGO-ORG-1194,Helsingin Osuuskauppa Elanto,,,,,,,,,,,,,,https://hok-elanto.fi,,,Finland
INDIGO-ORG-1195,S-Pankki,,,,,,,,,,,,,,,,,
INDIGO-ORG-1196,Shelter,,,,,,,,,,,,,,,,,
INDIGO-ORG-1197,The Brick,,,,,,,,,,,,,,,,,
INDIGO-ORG-1198,Population Services International (PSI),,,,,,,,,,,,,,,,,
INDIGO-ORG-1199,Society for All Round Development (SARD),,,,,,,,,,,,,,,,,
INDIGO-ORG-1200,"Secrétariat d'État Chargé de l'Économie sociale, solidaire et responsable",,,,,,,,,,,,,,,,,
INDIGO-ORG-1201,ADEME - Agence de la transition écologique,,,,,,,,,,,,,,,,,
INDIGO-ORG-1202,US Department of the Treasury,,,,,,,,,,,,,,,,,
INDIGO-ORG-1203,Ministry of Education of Ghana,,,,,,,,,,,,,,,,,
INDIGO-ORG-1204,"Ministry of Basic and Secondary Education, Sierra Leone",,,,,,,,,,,,,,,,,
INDIGO-ORG-1205,ViiV Healthcare,,,,ViiV Healthcare is a pharmaceutical company specializing in the development of therapies for HIV infection.,US,"Registered company, partnership or commercial association",,,,,,,,https://viivhealthcare.com/en-us/,,,
INDIGO-ORG-1207,Lado B Lda.,,,,,,,,,,,,,,,,,
INDIGO-ORG-1208,Holy House of Mercy of Lisbon (SCML),,,,,,,,,,,,,,,,,
INDIGO-ORG-1209,West Sussex Council,,,,,,,,,,,,,,,,,
INDIGO-ORG-1210,Altice Foundation,,,,,,,,,,,,,,,,,
INDIGO-ORG-1211,Solidarités nouvelles face au chômage (New solidarity in the face of unemployment),,,,,,,,,,,,,,,,,
INDIGO-ORG-1212,Fondation Caritas (Caritas Foundation - France),,,,,,,,,,,,,,,,,
INDIGO-ORG-1213,Anonymous investment fund,,,,,,,,,,,,,,,,,
INDIGO-ORG-1214,Le chant des étoiles,,,,,,,,,,,,,,,,,
INDIGO-ORG-1215,Caja de Compensación Familiar de Antioquia – COMFAMA,,Family Compensation Fund of Antioquia ,ES,,CO,,,,,,,,,https://www.comfama.com,,,
INDIGO-ORG-1216,Fundación Juanfe,,Juanfe Foundation,ES,,CO,"Registered non-profit organisation, charity or foundation",,,,,,,,https://juanfe.org/en/,,,
INDIGO-ORG-1217,Bancolombia,,Bancolombia Group,ES,,CO,"Registered company, partnership or commercial association",,,,,,,,https://www.grupobancolombia.com/,,,
INDIGO-ORG-1218,Fundación Fraternidad Medellín,,Medellin Fraternity Foundation,ES,,CO,"Registered non-profit organisation, charity or foundation",,,,,,,,https://www.fraternidadmedellin.org,,,
INDIGO-ORG-1219,Project Snowball,,,,,,,,,,,,,,,,,
INDIGO-ORG-1220,Guy's and St Tomas' Charity,,,,,,,,,,,,,,,,,
INDIGO-ORG-1221,Trust for London,,,,,,,,,,,,,,,,,
INDIGO-ORG-1222,Pilotlight,,,,,,,,,,,,,,,,,
INDIGO-ORG-1223,The Prince of Wales's Charitable Fund,,,,,,,,,,,,,,,,,
INDIGO-ORG-1224,Local government pension schemes,,,,,,Collective,,,,,,,,,,,
INDIGO-ORG-1225,Ceniarth,,,,,,,,,,,,,,,,,
INDIGO-ORG-1226,Provincial Government of Noord-Brabant,,,,,,,,,,,,,,,,,
INDIGO-ORG-1227,Stichting DOEN (DOEN Foundation),,,,,,,,,,,,,,,,,
INDIGO-ORG-1228,Sarban de Toekomst,,,,,,,,,,,,,,,,,
INDIGO-ORG-1229,Social Finance NL,,,,,,,,,,,,,,,,,
INDIGO-ORG-1230,Ctalents Netherlands,,,,,,,,,,,,,,,,,
INDIGO-ORG-1231,Refugees Team NL,,,,,,,,,,,,,,,,,
INDIGO-ORG-1232,Future werkt NL,,,,,,,,,,,,,,,,,
INDIGO-ORG-1233,Reveal,,,,,,,,,,,,,,,,,
INDIGO-ORG-1234,Robidus,,,,,,,,,,,,,,,,,
INDIGO-ORG-1235,Life Goals,,,,,,,,,,,,,,,,,
INDIGO-ORG-1236,Jump Mouvement,,,,,,,,,,,,,,,,,
INDIGO-ORG-1237,Ministry of Defence - The Netherlands,,,,,NL,Government body,,,,,,,,,,,
INDIGO-ORG-1238,Aegon,,,,,,,,,,,,,,,,,
INDIGO-ORG-1239,IncluSIF Social Impact Finance Management,,,,,,,,,,,,,,,,,
INDIGO-ORG-1240,Municipality of Haarlem,,,,,,,,,,,,,,,,,
INDIGO-ORG-1241,Meo (telecommunication company),,,,,,,,,,,,,,,,,
INDIGO-ORG-1242,The ING group,,,,,,,,,,,,,,,,,
INDIGO-ORG-1245,Pratham Infotech Foundation,,,,,,,,,,,,,,,,,
INDIGO-ORG-1246,Catalyst Management Services,,,,,,,,,,,,,,,,,
INDIGO-ORG-1247,"Institut pour la recherche, le developpement socio-economique et la communication (IRESCO)",,,,,,,,,,,,,,,,,
INDIGO-ORG-1248,Miller Thompson,,,,,,,,,,,,,,,,,
INDIGO-ORG-1249,SYC Ltd.,,,,,,,,,,,,,,,,,
INDIGO-ORG-1250,"34 investors - mixture of institutional, foundations and HNWI/families",,,,,,,,,,,,,,,,,
INDIGO-ORG-1251,King & Wood Mallesons,,,,,,,,,,,,,,,,,
INDIGO-ORG-1252,Berry Street,,,,,,,,,,,,,,,,,
INDIGO-ORG-1253,Victorian Aboriginal Child Care Agency,,,,,,,,,,,,,,,,,
INDIGO-ORG-1254,"22 investors - mixture of institutional, foundations and HNWI/families",,,,,,,,,,,,,,,,,
INDIGO-ORG-1255,Allen & Overy,,,,,,,,,,,,,,,,,
INDIGO-ORG-1256,Uniting communities,,,,,,,,,,,,,,,,,
INDIGO-ORG-1257,"27 investors - mixture of institutional, foundations and HNWI/families",,,,,,,,,,,,,,,,,
INDIGO-ORG-1258,Herbert Smith Freehills,,,,,,,,,,,,,,,,,
INDIGO-ORG-1259,Uniting NSW.ACT,,,,,,,,,,,,,,,,,
INDIGO-ORG-1260,St. George Community Housing,,,,,,,,,,,,,,,,,
INDIGO-ORG-1261,"29 investors - mixture of institutional, foundations and HNWI/families",,,,,,,,,,,,,,,,,
INDIGO-ORG-1262,Russian Post JSC,,,,,,,,,,,,,,,,,
INDIGO-ORG-1263,Ministry of Labor and Social Policy of Primorsky Krai,,,,,,,,,,,,,,,,,
INDIGO-ORG-1264,Ministry of Health of Primorsky Krai,,,,,,,,,,,,,,,,,
INDIGO-ORG-1265,"Saint Petersburg Association for Parents of Disabled Children ""GAOORDI""",,,,,,,,,,,,,,,,,
INDIGO-ORG-1266,Ministry of Labor and Social Development of the Republic of Sakha (Yakutia),,,,,,,,,,,,,,,,,
INDIGO-ORG-1267,Joint-Stock Company VEB.DV,,,,,,,,,,,,,,,,,
INDIGO-ORG-1268,Sem'ya Plus,,,,,,,,,,,,,,,,,
INDIGO-ORG-1269,Ministry of Social Relations of the Chelyabinsk Oblast,,,,,,,,,,,,,,,,,
INDIGO-ORG-1270,Russian Copper Company,,,,,,,,,,,,,,,,,
INDIGO-ORG-1271,Northamptonshire CCG,,,,,,,,,,,,,,,,,
INDIGO-ORG-1272,North Northamptonshire Council,,,,,,,,,,,,,,,,,
INDIGO-ORG-1273,Northamptonshire carers,,,,,,,,,,,,,,,,,
INDIGO-ORG-1274,General Practitioners Alliance,,,,,,,,,,,,,,,,,
INDIGO-ORG-1275,NEF - Near East Foundation,,,,,,"Registered non-profit organisation, charity or foundation",,,,,,,,https://www.neareast.org/,,,
INDIGO-ORG-1276,IKEA Foundation,,,,"IKEA Foundation is an independent charitable foundation that oversees IKEA's global philanthropy.

They support a wide range of programmes that help families afford a better everyday life and protect the planet, as well as programmes that help refugees and other displaced people become self-reliant in their new communities. They also support pilot projects that can both make an impact now and be a good model for future programmes.

All programmes are designed to help people help themselves to a better life. They have a definite time limit and are often designed in close co-operation with local and national governments to ensure sustainability.",NL,"Registered non-profit organisation, charity or foundation",,,,,,,,https://ikeafoundation.org/,,,NL
INDIGO-ORG-1277,Novo Nordisk ,,,,,DK,"Registered non-profit organisation, charity or foundation",,,,,,,,https://novonordiskfonden.dk/da/,,,
INDIGO-ORG-1278,NORAD (Norwegian Agency for Development Cooperation),,,,,NO,Government body,,,,,,,,https://www.norad.no/en/front/,,,
INDIGO-ORG-1279,DFC -  United States International Development Finance Corporation,,,,,US,Government body,,,,,,,,https://www.dfc.gov/,,,
INDIGO-ORG-1280,Ferd,,,,,NO,"Registered company, partnership or commercial association",,,,,,,,https://ferd.no/english/,,,
INDIGO-ORG-1281,MLF - Mission Locale de Forêt,,,,,,,,,,,,,,,,,
INDIGO-ORG-1282,Multiple private investors,,,,,,,,,,,,,,,,,
INDIGO-ORG-1283,NSDC - National Skill Development Corporation,,,,,,,,,,,,,,,,,
INDIGO-ORG-1284,HSBC Bank,,,,,GB,"Registered company, partnership or commercial association",,,,,,,,,,,
INDIGO-ORG-1285,JSW Group,,,,,IN,"Registered company, partnership or commercial association",,,,,,,,https://www.jsw.in/,,,
INDIGO-ORG-1286,Dubai Cares,,,,,AE,,,,,,,,,,,,
INDIGO-ORG-1289,Learnet Skills Ltd.,,,,,,,,,,,,,,,,,
INDIGO-ORG-1290,Magic Bus India Foundation,,,,,,,,,,,,,,,,,
INDIGO-ORG-1291,PanIIT Alumni Foundation,,,,,,,,,,,,,,,,,
INDIGO-ORG-1292,Oxford Policy Management,,,,,,,,,,,,,,,,,
INDIGO-ORG-1293,Nishith Desai Associates,,,,,,,,,,,,,,,,,
INDIGO-ORG-1295,Bridges Impact Foundation,,,,,,,,,,,,,,,,,
INDIGO-ORG-1296,Care France,,,,,,,,,,,,,,,,,
INDIGO-ORG-1297,Care Ethiopia,,,,,,,,,,,,,,,,,
INDIGO-ORG-1298,ProPride,,,,,,,,,,,,,,,,,
INDIGO-ORG-1299,AFD - Agence Française de Développement,,French Agency for Development,FR,,FR,Government body,,,,,,,,https://www.afd.fr/fr,,,
INDIGO-ORG-1300,Rattagan Macchiavello Arocena,,,,,,,,,,,,,,,,,
INDIGO-ORG-1301,San Martin Suárez (SMS) - Consultancy firm,,,,,,,,,,,,,,,,,
INDIGO-ORG-1302,Institute of Social Security,,,,,,,,,,,,,,,,,
INDIGO-ORG-1303,Substance,,,,,,,,,,,,,,,,,
INDIGO-ORG-1304,Office for Civil Society,,,,,,,,,,,,,,,,,
INDIGO-ORG-1305,JP Morgan,,,,,,,,,,,,,,,,,
INDIGO-ORG-1306,Merseyside,,,,,,,,,,,,,,,,,
INDIGO-ORG-1307,Pension funds,,,,,,,,,,,,,,,,,
INDIGO-ORG-1308,The Prince's Charities,,,,,,,,,,,,,,,,,
INDIGO-ORG-1309,Omidyar Network,,,,,,,,,,,,,,,,,
INDIGO-ORG-1310,Global Business Insurer QBE,,,,,,,,,,,,,,,,,
INDIGO-ORG-1311,Greater Manchester Pension Fund,,,,,,,,,,,,,,,,,
INDIGO-ORG-1312,Development Bank of Japan,,,,,,,,,,,,,,,,,
INDIGO-ORG-1313,Bank Workers' Charity,,,,,,,,,,,,,,,,,
INDIGO-ORG-1314,Ernst & Young ShinNihon LLC.,,,,,,,,,,,,,,,,,
INDIGO-ORG-1315,The Bank of Yokohama Ltd,,,,,,,,,,,,,,,,,
INDIGO-ORG-1316,"Yokohama City, Kanagawa Prefecture",,,,,,,,,,,,,,,,,
INDIGO-ORG-1317,"Kids Public, Ltd",,,,,,,,,,,,,,,,,
INDIGO-ORG-1318,Keyassets (NPO),,,,,,,,,,,,,,,,,
INDIGO-ORG-1319,"Ministry of Health, Labour, and Welfare",,,,,,,,,,,,,,,,,
INDIGO-ORG-1320,Japan Social Innovation and Investment Foundation (SIIF),,,,,,,,,,,,,,,,,
INDIGO-ORG-1321,Kanden Systems Inc.,,,,,,,,,,,,,,,,,
INDIGO-ORG-1322,KUMAMOTO Wellness Support Institute.Inc,,,,,,,,,,,,,,,,,
INDIGO-ORG-1323,Omuta-City,,,,,,,,,,,,,,,,,
INDIGO-ORG-1324,"The Japan Research Institute, Limited",,,,,,,,,,,,,,,,,
INDIGO-ORG-1325,"TANITA HEALTH LINK, INC",,,,,,,,,,,,,,,,,
INDIGO-ORG-1326,Local municipalities,,,,,,,,,,,,,,,,,
INDIGO-ORG-1327,Joyo Bank Ltd,,,,,,,,,,,,,,,,,
INDIGO-ORG-1328,"Yamaguchi Bank, Ltd",,,,,,,,,,,,,,,,,
INDIGO-ORG-1329,The Tohoku Bank,,,,,,,,,,,,,,,,,
INDIGO-ORG-1330,The Bank of Kyoto,,,,,,,,,,,,,,,,,
INDIGO-ORG-1331,"The Kagoshima Bank, LTD",,,,,,,,,,,,,,,,,
INDIGO-ORG-1332,Saitama Resona Bank Ltd,,,,,,,,,,,,,,,,,
INDIGO-ORG-1333,Tsukuba Wellness Research,,,,,,,,,,,,,,,,,
INDIGO-ORG-1334,"CureApp, Inc",,,,,,,,,,,,,,,,,
INDIGO-ORG-1335,"Toyonaka-City, Osaka Prefecture",,,,,,,,,,,,,,,,,
INDIGO-ORG-1336,Sumitomo Mitsui Banking Corporation,,,,,,,,,,,,,,,,,
INDIGO-ORG-1337,"The Dai-ichi Life Insurance Co., Ltd",,,,,,,,,,,,,,,,,
INDIGO-ORG-1338,Kyoto Shinkin Bank,,,,,,,,,,,,,,,,,
INDIGO-ORG-1339,Saijo City,,,,,,,,,,,,,,,,,
INDIGO-ORG-1340,Plus Social Investment,,,,,JP,,,,,,,,,,,,
INDIGO-ORG-1341,South Australian Department for Child Protection,,,,,AU,Government body,,,,,,,,https://www.childprotection.sa.gov.au/,,,
INDIGO-ORG-1342,New South Wales Department of Communities and Justice,,,,,AU,Government body,,,,,,,,https://www.dcj.nsw.gov.au/,,,
INDIGO-ORG-1343,Commonwealth Department of Social Services,,,,,AU,Government body,,,,,,,,https://www.dss.gov.au/,,,
INDIGO-ORG-1344,South Australian Housing Authority,,,,,AU,Government body,,,,,,,,https://www.housing.sa.gov.au/,,,
INDIGO-ORG-1345,Victorian Department of Education and Training,,,,,AU,Government body,,,,,,,,https://education.vic.gov.au,,,
INDIGO-ORG-1346,Higashiomi City,,,,,,,,,,,,,,,,,
INDIGO-ORG-1347,Higashiomi Sanpoyoshi Kikin,,,,,,,,,,,,,,,,,
INDIGO-ORG-1348,Seikatsu Club Kazenomura,,,,,,,,,,,,,,,,,
INDIGO-ORG-1349,The Murakami Family Foundation,,,,,,,,,,,,,,,,,
INDIGO-ORG-1350,Japan Fundraising Association,,,,,,,,,,,,,,,,,
INDIGO-ORG-1351,Higo Bank,,,,,,,,,,,,,,,,,
INDIGO-ORG-1352,NPO TOYBOX,,,,,,,,,,,,,,,,,
INDIGO-ORG-1353,Social Value Japan (SVJ),,,,,,,,,,,,,,,,,
INDIGO-ORG-1354,TOKUSHIMA VORTIS,,,,,,,,,,,,,,,,,
INDIGO-ORG-1355,"Otsuka Pharmaceutical Co., Ltd.",,,,,,,,,,,,,,,,,
INDIGO-ORG-1356,"R-body project Co., Ltd.",,,,,,,,,,,,,,,,,
INDIGO-ORG-1357,Mima City,,,,,,,,,,,,,,,,,
INDIGO-ORG-1358,Tokushima Prefecture,,,,,,,,,,,,,,,,,
INDIGO-ORG-1359,The Awa Bank,,,,,,,,,,,,,,,,,
INDIGO-ORG-1360,Tokushima Guarantee,,,,,,,,,,,,,,,,,
INDIGO-ORG-1361,Okayama City Health and Welfare Office,,,,,,,,,,,,,,,,,
INDIGO-ORG-1362,Aging and Welfare Department,,,,,,,,,,,,,,,,,
INDIGO-ORG-1363,Community Comprehensive Care Promotion Division,,,,,,,,,,,,,,,,,
INDIGO-ORG-1364,"PASONA OKAYAMA CO.,LTD",,,,,,,,,,,,,,,,,
INDIGO-ORG-1365,Grop Corporation,,,,,,,,,,,,,,,,,
INDIGO-ORG-1366,Okayama City,,,,,,,,,,,,,,,,,
INDIGO-ORG-1367,Chugoku Bank Ltd,,,,,,,,,,,,,,,,,
INDIGO-ORG-1368,PS-Setouchi,,,,,,,,,,,,,,,,,
INDIGO-ORG-1369,Shoppers Drug Mart,,,,,,,,,,,,,,,,,
INDIGO-ORG-1370,Addo Elephant National Park,,,,,ZA,,,,,,,,,,,,
INDIGO-ORG-1371,Great Fish River Nature Reserve,,,,,ZA,,,,,,,,,,,,
INDIGO-ORG-1373,International Bank for Reconstruction and Development,,,,"The International Bank for Reconstruction and Development (IDBR) is an international financial institution, established in 1944 and headquartered in Washington, D.C., United States, that is the lending arm of World Bank Group. The IBRD offers loans to middle-income developing countries.",US,"Multilateral, bilateral or intergovernmental body",,,,,,,,,,,
INDIGO-ORG-1374,Credit Suisse,,,,,,,,,,,,,,,,,
INDIGO-ORG-1375,Citibank,,,,,,,,,,,,,,,,,
INDIGO-ORG-1376,Conservation Alpha,,,,,,,,,,,,,,,,,
INDIGO-ORG-1377,Zoological Society of London,,,,,,,,,,,,,,,,,
INDIGO-ORG-1378,"67 local companies and 181 local shops in Okayama, Japan",,,,,,,,,,,,,,,,,
INDIGO-ORG-1379,Manitoba Government,,,,,,,,,,,,,,,,,
INDIGO-ORG-1380,"Selected list of pharmacies in Manitoba, Canada",,,,,,,,,,,,,,,,,
INDIGO-ORG-1381,Nuveen,,,,,,,,,,,,,,,,,
INDIGO-ORG-1383,CAIXA GERAL DE DEPOSITOS S.A.,,,,,,,,,,,,,,,,,
INDIGO-ORG-1384,"A2D CONSULTING, LDA",,,,,,,,,,,,,,,,,
INDIGO-ORG-1385,"AFTERBURNER, LDA",,,,,,,,,,,,,,,,,
INDIGO-ORG-1386,ACESSÍVEL ÊXITO - ASSOCIAÇÃO,,,,,,,,,,,,,,,,,
INDIGO-ORG-1387,"Ministry for Science, Technology and Higher Education - Portugal",,,,,,,,,,,,,,,,,
INDIGO-ORG-1388,Directorate-General for Education (DGE),,,,,,,,,,,,,,,,,
INDIGO-ORG-1389,Green Cape - South Africa,,,,,,,,,,,,,,,,,
INDIGO-ORG-1395,Manchester Metropolitan University,,,,,,,,,,,,,,,,,
INDIGO-ORG-1396,ITAD,,,,,,,,,,,,,,,,,
INDIGO-ORG-1397,Wu Jieh Yee Charitable Foundation,,,,,,,,,,,,,,,,,
INDIGO-ORG-1398,Lee Hysan Foundation,,,,,,,,,,,,,,,,,
INDIGO-ORG-1399,Oxfam Hong Kong (OHK),,,,,,,,,,,,,,,,,
INDIGO-ORG-1400,Faculty of Education of the University of Hong Kong,,,,,,,,,,,,,,,,,
INDIGO-ORG-1401,Centre for Child and Family Science of the Education University of Hong Kong,,,,,,,,,,,,,,,,,
INDIGO-ORG-1402,Social Innovation and Entrepreneurship Development Fund (SIE),,,,,,,,,,,,,,,,,
INDIGO-ORG-1403,The Office of Social Impact Investment - New South Wales Treasury,,,,,,,,,,,,,,,,,
INDIGO-ORG-1405,Sagana,,,,,,,,,,,,,,,,,
INDIGO-ORG-1406,Ikast-Brande Municipality,,,,,,,,,,,,,,,,,
INDIGO-ORG-1407,Memox,,,,,,,,,,,,,,,,,
INDIGO-ORG-1408,Vejle Municipality,,,,,,,,,,,,,,,,,
INDIGO-ORG-1409,Roskilde Municipalit,,,,,,,,,,,,,,,,,
INDIGO-ORG-1410,Aarhus Municipality,,,,,,,,,,,,,,,,,
INDIGO-ORG-1411,Den Sociale Investeringsfond (The Danish Social Investment Fund),,,,,,,,,,,,,,,,,
INDIGO-ORG-1412,Steno Diabetes Center,,,,,,,,,,,,,,,,,
INDIGO-ORG-1413,Fonden Mental Sundhed (Mental Health Foundation),,,,,,,,,,,,,,,,,
INDIGO-ORG-1414,Rudersdal Municipality,,,,,,,,,,,,,,,,,
INDIGO-ORG-1415,Dialog Mod Vold (Dialogue against Violence),,,,,,,,,,,,,,,,,
INDIGO-ORG-1416,Tuba Danmark,,,,,,,,,,,,,,,,,
INDIGO-ORG-1417,Brøndby Municipality (Brondby Municipality),,,,,,,,,,,,,,,,,
INDIGO-ORG-1418,Lær for Livet Fond (Learn for life),,,,,,,,,,,,,,,,,
INDIGO-ORG-1419,Home Office - United Kingdom,,,,,,,,,,,,,,,,,
INDIGO-ORG-1420,The Other Perspective,,,,,,,,,,,,,,,,,
INDIGO-ORG-1421,World Jewish Relief,,,,,,,,,,,,,,,,,
INDIGO-ORG-1422,Open Door North East,,,,,,,,,,,,,,,,,
INDIGO-ORG-1423,Northeast Refugee Service,,,,,,,,,,,,,,,,,
INDIGO-ORG-1424,Odils Learning Foundation,,,,,,,,,,,,,,,,,
INDIGO-ORG-1425,Plymouth Hope,,,,,,,,,,,,,,,,,
INDIGO-ORG-1426,Start - Students and Refugees Together,,,,,,,,,,,,,,,,,
INDIGO-ORG-1427,Anglicare Victoria - Australia,,,,,AU,,,,,,,,,https://www.anglicarevic.org.au/,,,
INDIGO-ORG-1428,VincentCare Victoria - Australia,,,,,AU,,,,,,,,,https://vincentcare.org.au/,,,
INDIGO-ORG-1429,Various Investors,,,,,,,,,,,,,,,,,
INDIGO-ORG-1430,Compass Leaving Care Limited,,,,,,,,,,,,,,,,,
INDIGO-ORG-1431,Thames Talbot Land Trust - Canada,,,,,CA,,,,,,,,,https://www.thamestalbotlandtrust.ca/,,,
INDIGO-ORG-1432,Lower Thames Valley Conservation Authority - Canada,,,,,CA,,,,,,,,,https://www.lowerthames-conservation.on.ca/,"100 Thames St, Chatham, ON",N7L 2Y8,Canada
INDIGO-ORG-1433,Alternative Land Use Services (ALUS) Canada,,,,,CA,,,,,,,,,https://alus.ca/,"555-2938 Dundas Street West, Toronto, Ontario",M6P 4E7,Canada
INDIGO-ORG-1434,Camp Kee-Mo-Kee,,,,,CA,,,,,,,,,https://www.keemokee.com/,"9581 Glendon Dr, Komoka, ON",N0L 1R0,Canada
INDIGO-ORG-1435,ReForest London,,,,,CA,,,,,,,,,https://www.reforestlondon.ca/,"944 Western Counties Rd, London, ON",N6C 6A9,Canada
INDIGO-ORG-1436,City of London - Canada,,,,,CA,Government body,,,,,,,,https://london.ca/,"300 Dufferin Avenue, London, ON",N6B 1Z2,Canada
INDIGO-ORG-1437,The Living Centre - Canada,,,,,CA,,,,,,,,,https://www.thelivingcentre.com/,"5871 Bells Rd.
London, ON",N6P 1P3,Canada
INDIGO-ORG-1438,Carolinian Canada,,,,,CA,"Registered non-profit organisation, charity or foundation",,,,,,,,https://caroliniancanada.ca/,"201 King St, London, ON",N6A 1C9,Canada
INDIGO-ORG-1439,VERGE Capital,,,,,CA,,,,,,,,,https://vergecapital.ca/,"201 King St, London, ON",N6A 1C9,Canada
INDIGO-ORG-1440,Environment and Climate Change Canada,,,,"Environment and Climate Change Canada is the department of the Government of Canada responsible for coordinating environmental policies and programs, as well as preserving and enhancing the natural environment and renewable resources. It is also colloquially known by its former name, Environment Canada.",CA,Government body,,,,,,,,https://www.canada.ca/en/environment-climate-change.html,,,
INDIGO-ORG-1441,Pollinator Partnership,,,,,CA,"Registered non-profit organisation, charity or foundation",,,,,,,,https://pollinatorpartnership.ca/,"PO Box 73619, RPO Wychwood, Toronto, Ontario",M6C 4A7,Canada
INDIGO-ORG-1442,3M Canada,,,,,CA,"Registered company, partnership or commercial association",,,,,,,,https://www.3mcanada.ca/3M/en_CA/company-ca/,,,
INDIGO-ORG-1443,Rådet for Sociale Investeringer (The Council for Social Investments),,,,,,,,,,,,,,,,,
INDIGO-ORG-1444,Lauritzen Fonden (Lauritzen Fund),,,,,,,,,,,,,,,,,
INDIGO-ORG-1445,EducAid,,,,,,,,,,,,,,,,,
INDIGO-ORG-1447,Rising Academy Network,,,,,,,,,,,,,,,,,
INDIGO-ORG-1448,National Youth Association Forum (NYAF),,,,,,,,,,,,,,,,,
INDIGO-ORG-1449,Street Child,,,,,,,,,,,,,,,,,
INDIGO-ORG-1450,Rockdale Foundation,,,,,,,,,,,,,,,,,
INDIGO-ORG-1451,Government of Sierra Leone,,,,,,,,,,,,,,,,,
INDIGO-ORG-1452,Reh-Fit Centre,,,,,,,,,,,,,,,,,
INDIGO-ORG-1453,Winnipeg Regional Health Authority,,,,,,,,,,,,,,,,,
INDIGO-ORG-1454,Victoria Hospital Foundation,,,,,,,,,,,,,,,,,
INDIGO-ORG-1455,Wiijii’idiwag Ikwewag,,,,,,,,,,,,,,,,,
INDIGO-ORG-1456,Southern First Nations Network of Care (SFNNC),,,,,,,,,,,,,,,,,
INDIGO-ORG-1457,Winnipeg Foundation,,,,,,,,,,,,,,,,,
INDIGO-ORG-1458,C.P. Loewen Family Foundation,,,,,,,,,,,,,,,,,
INDIGO-ORG-1459,Lawson Foundation,,,,,,,,,,,,,,,,,
INDIGO-ORG-1460,Inspirit Foundation,,,,,,,,,,,,,,,,,
INDIGO-ORG-1461,Children’s Aid Foundation of Canada,,,,,,,,,,,,,,,,,
INDIGO-ORG-1462,Educational Initiatives,,,,,,,,,,,,,,,,,
INDIGO-ORG-1463,The Larry Ellison Foundation,,,,,,,,,,,,,,,,,
INDIGO-ORG-1467,De Zorggroep,,,,,,,,,,,,,,,,,
INDIGO-ORG-1469,Korea International Cooperation Agency (KOICA),,,,The Korea International Cooperation Agency (KOICA) was established in 1991 by the Ministry of Foreign Affairs of South Korea as a governmental organization for Official Development Assistance (ODA) to enhance the effectiveness of South Korea's grant aid programs for developing countries by implementing the government's grant aid and technical cooperation programs.,KR,Government body,,,,,,,,http://www.koica.go.kr/,,,KR
INDIGO-ORG-1470,Bank of America,,,,"The Bank of America Corporation is an American multinational investment bank and financial services holding company headquartered at the Bank of America Corporate Center in Charlotte, North Carolina.",US,"Registered company, partnership or commercial association",,,,,,,,https://www.bankofamerica.com/,,,US
INDIGO-ORG-1471,Hempel Foundation,,,,"The Hempel Foundation is a dedicated philanthropist. We strive to make a difference by empowering children to learn, making coating more efficient and sustainable, sustaining biodiversity and realising great initiatives that bring about positive change",DK,"Registered non-profit organisation, charity or foundation",,,,,,,,https://www.hempelfonden.dk/,"Amaliegade 8, 1256 København",,Denmark
INDIGO-ORG-1472,Oneplanetcrowd (crowdfunding platform),,,,,NL,Crowdfunding,,,,,,,,https://www.oneplanetcrowd.com/en,,,
INDIGO-ORG-1473,Municipality of Horst aan de Maas,,,,,,,,,,,,,,,,,
INDIGO-ORG-1474,Municipality of Beesel,,,,,,,,,,,,,,,,,
INDIGO-ORG-1475,Municipality of Peel en Mass,,,,,,,,,,,,,,,,,
INDIGO-ORG-1476,Municipality of Bergen,,,,,,,,,,,,,,,,,
INDIGO-ORG-1477,Municipality of Gennep,,,,,,,,,,,,,,,,,
INDIGO-ORG-1478,Municipality of Venray,,,,,,,,,,,,,,,,,
INDIGO-ORG-1479,"Ministry of Justice, Japan",,,,,,,,,,,,,,,,,
INDIGO-ORG-1480,Mistui Sumitomo Banking Corporation,,,,,,,,,,,,,,,,,
INDIGO-ORG-1481,Campfire Social Capital Inc,,,,,,,,,,,,,,,,,
INDIGO-ORG-1482,"Kumon Co., Ltd",,,,,,,,,,,,,,,,,
INDIGO-ORG-1483,"Kizuki Co.,Ltd",,,,,,,,,,,,,,,,,
INDIGO-ORG-1484,Mofumofu Net,,,,,,,,,,,,,,,,,
INDIGO-ORG-1485,Public Education & Business Coalition,,,,Denver-based national education nonprofit,US,"Registered non-profit organisation, charity or foundation",,,,,,,,https://www.pebc.org/,"3607 M.L.K. Jr Blvd, Denver, CO",80205,United States
INDIGO-ORG-1486,Aurora Public Schools,,,,"The public school system in Aurora, Colorado, United States. There are 65 schools in the district.",US,Collective,,,,,,,,https://aurorak12.org/,,,
INDIGO-ORG-1487,Durango 9-R school district,,,,"Durango School District 9-R serves preK-12th grade students and is located in Durango, Colorado.",US,Collective,,,,,,,,https://www.durangoschools.org/,,,United Status
INDIGO-ORG-1488,Colorado Department of Education,,,,,,,,,,,,,,,,,
INDIGO-ORG-1489,Genesis Youth Trust - New Zealand,,,,,,,,,,,,,,,,,
INDIGO-ORG-1490,Oranga Tamariki - Ministry for Children - New Zealand,,,,,NZ,Government body,,,,,,,,https://www.orangatamariki.govt.nz/,,,New Zealand
INDIGO-ORG-1491,NZ Super Fund,,,,,,,,,,,,,,,,,
INDIGO-ORG-1492,Mint Asset Management,,,,,,,,,,,,,,,,,
INDIGO-ORG-1493,Caleb Trust,,,,,,,,,,,,,,,,,
INDIGO-ORG-1494,G Fund Limited,,,,,,,,,,,,,,,,,
INDIGO-ORG-1495,Middlesborough Borough Council,,,,,GB,Government body,,,,,,,,,,,
INDIGO-ORG-1496,Stockton Borough Council,,,,,GB,Government body,,,,,,,,,,,
INDIGO-ORG-1497,Redcar & Cleveland Borough Council,,,,,GB,Government body,,,,,,,,,,,
INDIGO-ORG-1498,Hartlepool Borough Council,,,,,GB,Government body,,,,,,,,,,,
INDIGO-ORG-1499,Northumberland County Council,,,,,,,,,,,,,,,,,
INDIGO-ORG-1500,North Tyneside Borough Council,,,,,GB,Government body,,,,,,,,,,,
INDIGO-ORG-1501,Teesside Police & Crime Commissioner,,,,,,,,,,,,,,,,,
INDIGO-ORG-1502,Oxford City Council,,,,,,,,,,,,,,,,,
INDIGO-ORG-1503,Southampton City Council,,,,,GB,Government body,,,,,,,,https://www.southampton.gov.uk/,,,
INDIGO-ORG-1504,APOPO (main provider),,,,,,,,,,,,,,https://apopo.org/?v=79cba1185463,,,
INDIGO-ORG-1505,Cordaid,,,,,,,,,,,,,,,,,
INDIGO-ORG-1506,Hawk Rock Foundation,,,,,,,,,,,,,,,,,
INDIGO-ORG-1507,Blue Parasol,,,,,,,,,,,,,,,,,
INDIGO-ORG-1508,FJC – A Foundation of Philanthropic Funds,,,,,,,,,,,,,,,,,
INDIGO-ORG-1509,Aptus,,,,,,,,,,,,,,,,,
INDIGO-ORG-1510,Astoreca Foundation,,,,,,,,,,,,,,,,,
INDIGO-ORG-1511,Barnechea Foundation,,,,,,,,,,,,,,,,,
INDIGO-ORG-1512,Puente Alto Municipality,,,,,,,,,,,,,,,,,
INDIGO-ORG-1513,Falabella Retail SA,,,,,,,,,,,,,,,,,
INDIGO-ORG-1514,Olivo Foundation,,,,,,,,,,,,,,,,,
INDIGO-ORG-1515,Angelini Foundation,,,,,,,,,,,,,,,,,
INDIGO-ORG-1516,Ermita de San Antonio Association,,,,,,,,,,,,,,,,,
INDIGO-ORG-1517,Bien Público Association,,,,,,,,,,,,,,,,,
INDIGO-ORG-1518,Presente Foundation,,,,,,,,,,,,,,,,,
INDIGO-ORG-1519,Regional Metropolitan Government of Santiago de Chile,,,,,,,,,,,,,,,,,
INDIGO-ORG-1520,Reinaldo Solari M. Foundation,,,,,,,,,,,,,,,,,
INDIGO-ORG-1521,Emprépolis Foundation,,,,,,,,,,,,,,,,,
INDIGO-ORG-1522,Huella Gestión Social Foundation,,,,,,,,,,,,,,,,,
INDIGO-ORG-1523,"Ilumina, acompañando tu despertar - Foundation",,,,,,,,,,,,,,,,,
INDIGO-ORG-1524,Purple Compass,,,,,,,,,,,,,,,,,
INDIGO-ORG-1533,NACOSA,,,,,,,,,,,,,,,,,
INDIGO-ORG-1534,Khethimpilo,,,,,,,,,,,,,,,,,
INDIGO-ORG-1535,Future Families,,,,,,,,,,,,,,,,,
INDIGO-ORG-1536,National Treasury - South Africa,,,,,ZA,Government body,,,,,,,,,,,
INDIGO-ORG-1537,Department of Science and Innovation - South Africa,,,,,ZA,Government body,,,,,,,,,,,
INDIGO-ORG-1538,Rand Merchant Bank,,,,,,,,,,,,,,,,,
INDIGO-ORG-1539,Innovation Guru,,,,,,,,,,,,,,,,,
INDIGO-ORG-1540,South African Medical Research Council,,,,,,,,,,,,,,,,,
INDIGO-ORG-1541,YMCA Canada,,,,,,,,,,,,,,,,,
INDIGO-ORG-1542,National Department of Health - South Africa,,,,,,,,,,,,,,,,,
INDIGO-ORG-1543,CESAR Africa,,,,,,,,,,,,,,,,,
INDIGO-ORG-1544,Marie Curie,,,,,,,,,,,,,,,,,
INDIGO-ORG-1545,Somerset ICB (Integrated Care Board),,,,,,,,,,,,,,,,,
INDIGO-ORG-1546,Bradford Hospital Trust,,,,,,,,,,,,,,,,,
INDIGO-ORG-1547,Macmillan Cancer Support,,,,,,,,,,,,,,,,,
INDIGO-ORG-1548,Wecyclers,,,,,,,,,,,,,,,,,
INDIGO-ORG-1549,Société Générale (Societe Generale),,,,,,,,,,,,,,,,,
INDIGO-ORG-1550,Unilever Nigeria (West Africa),,,,,,,,,,,,,,,,,
INDIGO-ORG-1551,Catch-22,,,,,,,,,,,,,,,,,
INDIGO-ORG-1553,Healthy Living Partnership,,,,,,,,,,,,,,,,,
INDIGO-ORG-1554,Worcestershire Association of Carers,,,,,,,,,,,,,,,,,
INDIGO-ORG-1555,Simply Limitless Wellbeing Charity,,,,,,,,,,,,,,,,,
INDIGO-ORG-1556,ONSIDE Advocacy,,,,,,,,,,,,,,,,,
INDIGO-ORG-1557,Barts Health NHS Trust,,,,,,,,,,,,,,,,,
INDIGO-ORG-1558,Carers Trust Hillingdon,,,,,,,,,,,,,,,,,
INDIGO-ORG-1559,Your Life Line: Hillingdon,,,,,,,,,,,,,,,,,
INDIGO-ORG-1560,NHS Bradford City Clinical Commissioning Group,,,,,,,,,,,,,,,,,
INDIGO-ORG-1561,"NHS Airedale, Wharefedale and Craven Clinical Commissioning Group",,,,,,,,,,,,,,,,,
INDIGO-ORG-1562,North East Lincolnshire Integrated Care Board,,,,,,,,,,,,,,,,,
INDIGO-ORG-1563,St John's Hospital Trust,,,,,,,,,,,,,,,,,
INDIGO-ORG-1567,Kenya Health Outcomes Partnership Limited,,,,,,,,,,,,,,,,,
INDIGO-ORG-1569,United Nations Population Fund (UNFPA),,,,,,,,,,,,,,,,,
INDIGO-ORG-1570,World Health Organisation (WHO),,,,,,,,,,,,,,,,,
INDIGO-ORG-1571,Joint United Nations Programme on HIV/AIDS (UNAIDS),,,,,,,,,,,,,,,,,
INDIGO-ORG-1572,The UN Resident Coordinator's Office in Kenya,,,,,,,,,,,,,,,,,
INDIGO-ORG-1573,The UN SDG Partnership Platform,,,,,,,,,,,,,,,,,
INDIGO-ORG-1574,Lewisham and Greenwich NHS Trust,,,,,,,,,,,,,,,,,
INDIGO-ORG-1575,One Health Lewisham,,,,,,,,,,,,,,,,,
INDIGO-ORG-1576,Kings College Hospital NHS Foundation Trust,,,,,,,,,,,,,,,,,
INDIGO-ORG-1577,Lambeth Healthcare,,,,,,,,,,,,,,,,,
INDIGO-ORG-1578,Guy's and St Thomas' NHS Foundation Trust,,,,,,,,,,,,,,,,,
INDIGO-ORG-1579,The NAZ Project,,,,,,,,,,,,,,,,,
INDIGO-ORG-1580,Improving Health Ltd,,,,,,,,,,,,,,,,,
INDIGO-ORG-1581,Quay Health Services,,,,,,,,,,,,,,,,,
INDIGO-ORG-1582,African Advocacy Foundation,,,,,,,,,,,,,,,,,
INDIGO-ORG-1583,Aymara Social Enterprises,,,,,,,,,,,,,,,,,
INDIGO-ORG-1584,METRO Charity,,,,,,,,,,,,,,,,,
INDIGO-ORG-1585,Remploy,,,,,,,,,,,,,,,,,
INDIGO-ORG-1586,Hillside Clubhouse,,,,,,,,,,,,,,,,,
INDIGO-ORG-1587,British International Investment (BII),,,,,,,,,,,,,,,,,
INDIGO-ORG-1588,Enocta,,,,,,,,,,,,,,,,,
INDIGO-ORG-1589,Istanbul Regional Development Agency,,,,,,,,,,,,,,,,,
INDIGO-ORG-1590,Employment Outcomes NPC,,,,,SA,"Registered non-profit organisation, charity or foundation",,,,,,,,https://www.krutham.com/press-releases/jobs-boost-outcomes-fund-launched-r300-million-allocated-to-youth-training-that-results-in-jobs/,"First floor, Building 3, Inanda Greens Office Park, 54 Wierda Road West, Sandton, 2194,South Africa",2194,South Africa
INDIGO-ORG-1591,South West London Integrated Care Board,,,,,,,,,,,,,,,,,
INDIGO-ORG-1592,Epsom and St Helier University Hospitals NHS Trust,,,,,,,,,,,,,,,,,
INDIGO-ORG-1593,North Central London Integrated Care Board,,,,,,,,,,,,,,,,,
INDIGO-ORG-1594,London Borough of Barking and Dagenham,,,,,,,,,,,,,,,,,
INDIGO-ORG-1595,London Borough of Kingston,,,,,,,,,,,,,,,,,
INDIGO-ORG-1596,London Borough of Richmond upon Thames,,,,,,,,,,,,,,,,,
INDIGO-ORG-1597,Tanfees Ltd,,,,,,,,,,,,,,,,,
INDIGO-ORG-1598,The Abu Dhabi Early Childhood Authority,,,,,,,,,,,,,,,,,
INDIGO-ORG-1599,Al Dar Properties,,,,,,,,,,,,,,,,,
INDIGO-ORG-1600,Authority of Social Contribution (Ma'an),,,,,,,,,,,,,,,,,
INDIGO-ORG-1601,SundInvest Aps,,,,,,,,,,,,,,,,,
INDIGO-ORG-1602,Empano,,,,,,,,,,,,,,,,,
INDIGO-ORG-1603,Falck Quick Care,,,,,,,,,,,,,,,,,
INDIGO-ORG-1604,Slagelse Municipality,,,,,,,,,,,,,,,,,
INDIGO-ORG-1605,Holbæk Municipality,,,,,,,,,,,,,,,,,
INDIGO-ORG-1606,Viborg Municipality,,,,,,,,,,,,,,,,,
INDIGO-ORG-1607,Boligselskabet Sct. Jørgen (The Housing Association Sct. Jørgen),,,,,,,,,,,,,,,,,
INDIGO-ORG-1608,BoligViborg (HousingViborg),,,,,,,,,,,,,,,,,
INDIGO-ORG-1609,Landsbyggefonden (The National Building Fund),,,,,,,,,,,,,,,,,
INDIGO-ORG-1610,Joep Lange Institute,,,,,,,,,,,,,,,,,
INDIGO-ORG-1611,PharmAccess Foundation,,,,,,,,,,,,,,,,,
INDIGO-ORG-1612,Global Loan Agency Services (GLAS),,,,,,,,,,,,,,,,,
INDIGO-ORG-1613,Centre Pasteur du Cameroun,,,,,,,,,,,,,,,,,
INDIGO-ORG-1614,Laboratoire de Recherche sur les Hépatites virales et la Communication en Santé,,,,,,,,,,,,,,,,,
INDIGO-ORG-1615,Agence Nationale de Recherche sur le Sida (ANRS),,,,,,,,,,,,,,,,,
INDIGO-ORG-1616,Achmea Foundation,,,,,NL,"Registered non-profit organisation, charity or foundation",,,,,,,,https://www.achmea.nl/en/,,,
INDIGO-ORG-1617,Hosanna Charitable Trust Board,,,,,,,,,,,,,,,,,
INDIGO-ORG-1618,G-OP Ltd,,,,,,,,,,,,,,,,,
INDIGO-ORG-1619,Plymouth Household Fund,,,,,,,,,,,,,,,,,
INDIGO-ORG-1620,Toronto Foundation,,,,,,,,,,,,,,,,,
INDIGO-ORG-1621,Counselling Foundation,,,,,,,,,,,,,,,,,
INDIGO-ORG-1622,Impact Canada,,,,,,,,,,,,,,,,,
INDIGO-ORG-1623,Ministry of Public Safety and Emergency Preparedness - Canada,,,,,,,,,,,,,,,,,
INDIGO-ORG-1624,Robert Kerr Foundation,,,,,,,,,,,,,,,,,
INDIGO-ORG-1625,Erste Social Finance Holding,,,,,AT,,,,,,,,,,,,
INDIGO-ORG-1626,Atempo,,,,,,,,,,,,,,,,,
INDIGO-ORG-1627,"Austrian Federal Ministry of Social Affairs, Health, Care and Consumer Protection",,,,,AT,Government body,,,,,,,,,,,
INDIGO-ORG-1628,Bevington Primary Art Brunel Academy,,,,,,,,,,,,,,,,,
INDIGO-ORG-1629,Aldridge Academy,,,,,,,,,,,,,,,,,
INDIGO-ORG-1630,Ernst & Young,,,,,,,,,,,,,,,,,
INDIGO-ORG-1631,Caliaco,,,,,,,,,,,,,,,,,
INDIGO-ORG-1632,42nd Street,,,,,,,,,,,,,,,,,
INDIGO-ORG-1633,Early Break,,,,,,,,,,,,,,,,,
INDIGO-ORG-1634,AKT,,,,,,,,,,,,,,,,,
INDIGO-ORG-1635,Centre 4,,,,,,,,,,,,,,,,,
INDIGO-ORG-1636,Humber and North Yorkshire Integrated Care Board,,,,,,,,,,,,,,,,,
INDIGO-ORG-1637,Peepul,,,,,,,,,,,,,,,,,
INDIGO-ORG-1638,Language and Learning Foundation (LLF),,,,,,,,,,,,,,,,,
INDIGO-ORG-1640,Atlassian Foundation,,,,,,,,,,,,,,,,,
INDIGO-ORG-1641,Maitri Trust,,,,,,,,,,,,,,,,,
INDIGO-ORG-1642,Reliance Foundation,,,,,,,,,,,,,,,,,
INDIGO-ORG-1643,Standard Chartered Bank (SCB) Foundation,,,,,,,,,,,,,,,,,
INDIGO-ORG-1644,Central Square Foundation,,,,,,,,,,,,,,https://www.centralsquarefoundation.org/,,,
INDIGO-ORG-1645,iSEA,,,,,,,,,,,,,,,,,
INDIGO-ORG-1646,Great Yarmouth District Council,,,,,,,,,,,,,,,,,
INDIGO-ORG-1647,Evolve,,,,,,,,,,,,,,,,,
INDIGO-ORG-1648,The Benjamin Foundation,,,,,,,,,,,,,,,,,
INDIGO-ORG-1649,Youthbuild Mexico,,,,,,,,,,,,,,,,,
INDIGO-ORG-1650,Government of Nuevo León,,,,,,,,,,,,,,,,,
INDIGO-ORG-1651,Catholic Relief Services-USCCB,,,,,,,,,,,,,,,,,
INDIGO-ORG-1652,Alberro & Asociados,,,,,,,,,,,,,,,,,
INDIGO-ORG-1653,Anima - Uruguay,,,,,,,,,,,,,,,,,
INDIGO-ORG-1654,The Ministry of Social Development of Uruguay (MIDES),,,,,,,,,,,,,,,,,
INDIGO-ORG-1655,The Ministry of Education and Culture of Uruguay (MEC),,,,,,,,,,,,,,,,,
INDIGO-ORG-1656,The National Institute for Employment and Professional Training (INEFOP),,,,,,,,,,,,,,,,,
INDIGO-ORG-1657,The Bank of the Oriental Republic of Uruguay (BROU),,,,,,,,,,,,,,,,,
INDIGO-ORG-1658,Scotiabank,,,,,,,,,,,,,,,,,
INDIGO-ORG-1659,Santander Bank - Uruguay,,,,,,,,,,,,,,,,,
INDIGO-ORG-1660,Itau Bank - Uruguay,,,,,,,,,,,,,,,,,
INDIGO-ORG-1661,Reaching U Foundation,,,,,,,,,,,,,,,,,
INDIGO-ORG-1662,United Nations Development Programme (UNDP),,,,,,,,,,,,,,,,,
INDIGO-ORG-1663,Grant Thornton,,,,,,,,,,,,,,,,,
INDIGO-ORG-1672,Degroof Petercam Foundation (Fondation Degroof Petercam),,,,,,,,,,,,,,,,,
INDIGO-ORG-1673,Citizing,,,,,,,,,,,,,,,,,
INDIGO-ORG-1674,Alethina Impact,,,,,TR,,,,,,,,,,,,
INDIGO-ORG-1675,Etkiyap,,,,,TR,,,,,,,,,,,,
INDIGO-ORG-1676,Federal Finance Gestion,,,,,,,,,,,,,,,,,
INDIGO-ORG-1677,Wake up Café,,,,,,,,,,,,,,,,,
INDIGO-ORG-1678,Innov8 Investments,,,,,,,,,,,,,,,,,
INDIGO-ORG-1679,EBS Energie,,,,,,,,,,,,,,,,,
INDIGO-ORG-1680,Twoo,,,,,,,,,,,,,,,,,
INDIGO-ORG-1681,Crédit Agricole Martinique Guyane,,,,,,,,,,,,,,,,,
INDIGO-ORG-1682,Malakoff Humanis,,,,,,,,,,,,,,,,,
INDIGO-ORG-1683,Sycomore Impact Emploi,,,,,,,,,,,,,,,,,
INDIGO-ORG-1684,Comme Les Autres,,,,,,,,,,,,,,,,,
INDIGO-ORG-1685,Mozaïk,,,,,,,,,,,,,,,,,
INDIGO-ORG-1686,Marché d'Intérêt National (National Interest Market),,,,,,,,,,,,,,,,,
INDIGO-ORG-1687,Métropole de Rouen Normandie (Rouen Normandy Metropolis),,,,,,,,,,,,,,,,,
INDIGO-ORG-1688,DRAAF Normandie,,,,,,,,,,,,,,,,,
INDIGO-ORG-1689,"Departmental Directorate of Employment, Labor and Solidarity (DDETS)",,,,,,,,,,,,,,,,,
INDIGO-ORG-1690,Ferrero France,,,,,,,,,,,,,,,,,
INDIGO-ORG-1691,Carniato,,,,,,,,,,,,,,,,,
INDIGO-ORG-1692,Peters Foundation,,,,,,,,,,,,,,,,,
INDIGO-ORG-1693,Socaps Fund,,,,,,,,,,,,,,,,,
INDIGO-ORG-1694,National Association for the Development of Solidarity Grocery Stores (ANDES),,,,,,,,,,,,,,,,,
INDIGO-ORG-1695,Réemprod,,,,,,,,,,,,,,,,,
INDIGO-ORG-1696,Fidal,,,,,,,,,,,,,,,,,
INDIGO-ORG-1697,Léo Lagrange Federation,,,,,,,,,,,,,,,,,
INDIGO-ORG-1698,IDES Investissement,,,,,,,,,,,,,,,,,
INDIGO-ORG-1699,InvESS Ile de France (InvESS Island of France),,,,,,,,,,,,,,,,,
INDIGO-ORG-1700,Avelana,,,,,,,,,,,,,,,,,
INDIGO-ORG-1701,La Banque des Territoires (Bank of the Territories),,,,,,,,,,,,,,,,,
INDIGO-ORG-1703,Envie Autonomie,,,,,,,,,,,,,,,,,
INDIGO-ORG-1704,Label Vie,,,,,,,,,,,,,,,,,
INDIGO-ORG-1707,Legatum,,,,,,,,,,,,,,,,,
INDIGO-ORG-1708,Tsao Family Office,,,,,,,,,,,,,,,,,
INDIGO-ORG-1709,Waterloo Foundation,,,,,,,,,,,,,,,,,
